<?xml version="1.0" encoding="UTF-8"?>
<gpx version="1.1" creator="Stadsvandring.io" xmlns="http://www.topografix.com/GPX/1/1">
<metadata><name>Kyrkostigen i Malmö</name><link href="https://stadsvandring.io"><text>Stadsvandring.io</text></link></metadata>
  <wpt lat="55.63511" lon="13.07819"><name>Arlövs kyrka</name><desc>kyrkobyggnad i Burlövs kommun</desc></wpt>
  <wpt lat="55.625308" lon="13.040797"><name>Saint Naum of Ohrid Church, Malmö</name><desc>Saint Naum of Ohrid Church, Malmö</desc></wpt>
  <wpt lat="55.60888889" lon="13.04138889"><name>Kirsebergs kyrka</name><desc>kyrkobyggnad i Malmö kommun</desc></wpt>
  <wpt lat="55.60027778" lon="13.04027778"><name>Sankta Katarina kyrka</name><desc>kyrkobyggnad i Malmö kommun</desc></wpt>
  <wpt lat="55.594777" lon="13.047883"><name>Sankta birgittas kapell</name><desc>kapell i Malmö kommun</desc></wpt>
  <wpt lat="55.592823" lon="13.042472"><name>Sankta gertruds kapell</name><desc>kapell i Malmö kommun</desc></wpt>
  <wpt lat="55.58527778" lon="13.04305556"><name>Rosengårds kyrka</name><desc>kyrkobyggnad i Malmö kommun</desc></wpt>
  <wpt lat="55.5783" lon="13.0542"><name>Västra Skrävlinge kyrka</name><desc>kyrkobyggnad i Malmö kommun</desc></wpt>
  <wpt lat="55.572777777778" lon="13.046944444444"><name>Västra Skrävlinge gamla kyrka</name><desc>tidigare kyrka i Västra Skrävlinge, Sverige</desc></wpt>
  <wpt lat="55.56277778" lon="13.025"><name>Fosie kyrka</name><desc>kyrkobyggnad i Malmö kommun</desc></wpt>
  <wpt lat="55.56182" lon="13.02381"><name>Heliga korsets kapell, Malmö</name><desc>Heliga korsets kapell, Malmö</desc></wpt>
  <wpt lat="55.57415" lon="13.00042"><name>Heliga Kyrillos och Methodios kyrka</name><desc>serbisk-ortodox kyrka i Malmö, Sverige</desc></wpt>
  <wpt lat="55.57833333" lon="13.00555556"><name>Heliga Trefaldighetskyrkan</name><desc>kyrkobyggnad i Malmö</desc></wpt>
  <wpt lat="55.58125" lon="12.99180556"><name>Pingstkyrkan Europaporten</name><desc>kyrka i Malmö, Sverige</desc></wpt>
  <wpt lat="55.58988938622202" lon="12.997663848272314"><name>Kyrka/kapell</name><desc>Uppgift om ett medeltida kapell öster om Pildammarna.</desc></wpt>
  <wpt lat="55.59434243168338" lon="13.000643197375714"><name>Sankt Johannes kyrka</name><desc>När Malmö växte kraftigt i det tidiga 1900-talet behövde alla de som bebodde arbetarkvarteren i Södra Förstaden och Möllevången en egen kyrka.</desc></wpt>
  <wpt lat="55.595995794907815" lon="12.992425041555073"><name>Frikyrka / bönehus /missionshus</name><desc>Frikyrko- eller missionshusbyggnad i Malmö.</desc></wpt>
  <wpt lat="55.5973" lon="12.9919"><name>Vår Frälsares kyrka</name><desc>kyrkobyggnad i Malmö kommun</desc></wpt>
  <wpt lat="55.59680556" lon="12.98611111"><name>Helgeandskyrkan</name><desc>kyrkobyggnad i Malmö kommun</desc></wpt>
  <wpt lat="55.60457119610323" lon="12.987317169732595"><name>Borg</name><desc>Försvarsverk kring Malmöhus med bastioner och vallgravar, delvis undersökt vid flera tillfällen.</desc></wpt>
  <wpt lat="55.607777777778" lon="12.995277777778"><name>Sankt Nicolai kapell, Malmö</name><desc>Sankt Nicolai kapell, Malmö</desc></wpt>
  <wpt lat="55.60702778" lon="13.00277778"><name>Krämarekapellet</name><desc>kapell i Sankt Petri kyrka, Malmö</desc></wpt>
  <wpt lat="55.606924548400855" lon="13.003429989916434"><name>Sankt Petri kyrka</name><desc>Malmös medeltida storkyrka i baltisk tegelgotik, byggd på 1300-talet med Lübeck som förebild.</desc></wpt>
  <wpt lat="55.6075" lon="13.00666667"><name>Caroli kyrka</name><desc>kyrkobyggnad i Malmö kommun</desc></wpt>
  <wpt lat="55.6031" lon="13.0144"><name>Sankt Pauli kyrka</name><desc>kyrka i Malmö</desc></wpt>
  <wpt lat="55.59812910019875" lon="13.019864859979549"><name>PAULI MELLERSTA KYRKOGÅRD</name><desc>Kyrkogård i Malmö, anlagd 1890.</desc></wpt>
  <wpt lat="55.58932031665879" lon="13.020783527741774"><name>SANKT MATTEUS KYRKA (SOFIELUNDSKYRKAN)</name><desc>Sankt Matteus kyrka (Sofielundskyrkan) i Malmö, byggd 1955–1957.</desc></wpt>
  <wpt lat="55.58916667" lon="13.02111111"><name>Sankt Matteus kyrka</name><desc>kyrkobyggnad i Malmö kommun</desc></wpt>
  <wpt lat="55.589294" lon="13.021493"><name>S:t matteus diakoniexpedition</name><desc>S:t matteus diakoniexpedition</desc></wpt>
  <wpt lat="55.58861111" lon="13.01194444"><name>Sankta Maria kyrka</name><desc>kyrkobyggnad i Malmö kommun</desc></wpt>
  <wpt lat="55.59916667" lon="12.97138889"><name>Sankt Andreas kyrka</name><desc>kyrkobyggnad i Malmö kommun</desc></wpt>
  <wpt lat="55.596065" lon="12.962971"><name>Tyska kyrkan</name><desc>kyrkobyggnad tillhörandes Tyska evangeliska församlingen i Malmö, Sverige</desc></wpt>
  <wpt lat="55.57583333" lon="12.97083333"><name>Hyllie kyrka</name><desc>kyrkobyggnad i Malmö kommun</desc></wpt>
  <wpt lat="55.566682582557" lon="12.963110460905"><name>Hyllie gamla kyrka</name><desc>tidigare kyrka i Hyllie</desc></wpt>
  <wpt lat="55.568426939394" lon="12.952740415342"><name>Hyllie Park Kyrkan</name><desc>Hyllie Park Kyrkan är en kristen församling i Malmö ansluten till Evangeliska Frikyrkan med cirka 270 medlemmar.</desc></wpt>
  <wpt lat="55.571134" lon="12.945473"><name>Uppståndelsens kapell</name><desc>kapell i Malmö kommun</desc></wpt>
  <wpt lat="55.5747" lon="12.9447"><name>Limhamns kyrka</name><desc>kyrka i området Limhamn i Malmö, Sverige</desc></wpt>
  <wpt lat="55.555988393372" lon="12.962598463366"><name>Bunkeflo gamla kyrka</name><desc>tidigare kyrka i Bunkeflo, Sverige</desc></wpt>
  <wpt lat="55.55583333" lon="12.96444444"><name>Bunkeflo kyrka</name><desc>kyrkobyggnad i Malmö kommun</desc></wpt>
  <wpt lat="55.56166667" lon="12.98888889"><name>Sankt Mikaels kyrka</name><desc>kyrkobyggnad i Malmö kommun</desc></wpt>
  <wpt lat="55.541388888889" lon="13.043888888889"><name>Lockarps kyrka</name><desc>kyrkobyggnad i Malmö kommun</desc></wpt>
  <wpt lat="55.57722222" lon="13.08388889"><name>Husie kyrka</name><desc>kyrkobyggnad i Malmö kommun</desc></wpt>
  <wpt lat="55.58527778" lon="13.11916667"><name>Södra Sallerups kyrka</name><desc>kyrkobyggnad i Malmö kommun</desc></wpt>
  <rte><name>Kyrkostigen i Malmö</name>
    <rtept lat="55.63511" lon="13.07819"><name>Arlövs kyrka</name></rtept>
    <rtept lat="55.625308" lon="13.040797"><name>Saint Naum of Ohrid Church, Malmö</name></rtept>
    <rtept lat="55.60888889" lon="13.04138889"><name>Kirsebergs kyrka</name></rtept>
    <rtept lat="55.60027778" lon="13.04027778"><name>Sankta Katarina kyrka</name></rtept>
    <rtept lat="55.594777" lon="13.047883"><name>Sankta birgittas kapell</name></rtept>
    <rtept lat="55.592823" lon="13.042472"><name>Sankta gertruds kapell</name></rtept>
    <rtept lat="55.58527778" lon="13.04305556"><name>Rosengårds kyrka</name></rtept>
    <rtept lat="55.5783" lon="13.0542"><name>Västra Skrävlinge kyrka</name></rtept>
    <rtept lat="55.572777777778" lon="13.046944444444"><name>Västra Skrävlinge gamla kyrka</name></rtept>
    <rtept lat="55.56277778" lon="13.025"><name>Fosie kyrka</name></rtept>
    <rtept lat="55.56182" lon="13.02381"><name>Heliga korsets kapell, Malmö</name></rtept>
    <rtept lat="55.57415" lon="13.00042"><name>Heliga Kyrillos och Methodios kyrka</name></rtept>
    <rtept lat="55.57833333" lon="13.00555556"><name>Heliga Trefaldighetskyrkan</name></rtept>
    <rtept lat="55.58125" lon="12.99180556"><name>Pingstkyrkan Europaporten</name></rtept>
    <rtept lat="55.58988938622202" lon="12.997663848272314"><name>Kyrka/kapell</name></rtept>
    <rtept lat="55.59434243168338" lon="13.000643197375714"><name>Sankt Johannes kyrka</name></rtept>
    <rtept lat="55.595995794907815" lon="12.992425041555073"><name>Frikyrka / bönehus /missionshus</name></rtept>
    <rtept lat="55.5973" lon="12.9919"><name>Vår Frälsares kyrka</name></rtept>
    <rtept lat="55.59680556" lon="12.98611111"><name>Helgeandskyrkan</name></rtept>
    <rtept lat="55.60457119610323" lon="12.987317169732595"><name>Borg</name></rtept>
    <rtept lat="55.607777777778" lon="12.995277777778"><name>Sankt Nicolai kapell, Malmö</name></rtept>
    <rtept lat="55.60702778" lon="13.00277778"><name>Krämarekapellet</name></rtept>
    <rtept lat="55.606924548400855" lon="13.003429989916434"><name>Sankt Petri kyrka</name></rtept>
    <rtept lat="55.6075" lon="13.00666667"><name>Caroli kyrka</name></rtept>
    <rtept lat="55.6031" lon="13.0144"><name>Sankt Pauli kyrka</name></rtept>
    <rtept lat="55.59812910019875" lon="13.019864859979549"><name>PAULI MELLERSTA KYRKOGÅRD</name></rtept>
    <rtept lat="55.58932031665879" lon="13.020783527741774"><name>SANKT MATTEUS KYRKA (SOFIELUNDSKYRKAN)</name></rtept>
    <rtept lat="55.58916667" lon="13.02111111"><name>Sankt Matteus kyrka</name></rtept>
    <rtept lat="55.589294" lon="13.021493"><name>S:t matteus diakoniexpedition</name></rtept>
    <rtept lat="55.58861111" lon="13.01194444"><name>Sankta Maria kyrka</name></rtept>
    <rtept lat="55.59916667" lon="12.97138889"><name>Sankt Andreas kyrka</name></rtept>
    <rtept lat="55.596065" lon="12.962971"><name>Tyska kyrkan</name></rtept>
    <rtept lat="55.57583333" lon="12.97083333"><name>Hyllie kyrka</name></rtept>
    <rtept lat="55.566682582557" lon="12.963110460905"><name>Hyllie gamla kyrka</name></rtept>
    <rtept lat="55.568426939394" lon="12.952740415342"><name>Hyllie Park Kyrkan</name></rtept>
    <rtept lat="55.571134" lon="12.945473"><name>Uppståndelsens kapell</name></rtept>
    <rtept lat="55.5747" lon="12.9447"><name>Limhamns kyrka</name></rtept>
    <rtept lat="55.555988393372" lon="12.962598463366"><name>Bunkeflo gamla kyrka</name></rtept>
    <rtept lat="55.55583333" lon="12.96444444"><name>Bunkeflo kyrka</name></rtept>
    <rtept lat="55.56166667" lon="12.98888889"><name>Sankt Mikaels kyrka</name></rtept>
    <rtept lat="55.541388888889" lon="13.043888888889"><name>Lockarps kyrka</name></rtept>
    <rtept lat="55.57722222" lon="13.08388889"><name>Husie kyrka</name></rtept>
    <rtept lat="55.58527778" lon="13.11916667"><name>Södra Sallerups kyrka</name></rtept>
  </rte>
</gpx>
