<?xml version="1.0" encoding="UTF-8"?>
<gpx version="1.1" creator="Stadsvandring.io" xmlns="http://www.topografix.com/GPX/1/1">
<metadata><name>Kyrkostigen i Jönköping</name><link href="https://stadsvandring.io"><text>Stadsvandring.io</text></link></metadata>
  <wpt lat="57.84128" lon="14.14836"><name>Trånghalla kyrka</name><desc>kyrkobyggnad i Trånghalla, Sverige, använd av Svenska kyrkan</desc></wpt>
  <wpt lat="57.81083333" lon="14.15416667"><name>Ceciliakyrkan</name><desc>rumänsk-ortodox kyrka i Vilhelmsro, Sverige</desc></wpt>
  <wpt lat="57.79111111" lon="14.14048611"><name>Bymarkskyrkan</name><desc>kyrkobyggnad i Svenska kyrkan på Bynarken i Jönköping i Sverige</desc></wpt>
  <wpt lat="57.7872" lon="14.146"><name>Dunkehalla kapell</name><desc>kapell i Jönköping, Sverige</desc></wpt>
  <wpt lat="57.78335556" lon="14.13910833"><name>Bäckaby gamla kyrka</name><desc>tidigare kyrkobyggnad i Svenska kyrkan i Jönköpings stadspark i Jönköping, Sverige</desc></wpt>
  <wpt lat="57.787625" lon="14.13330556"><name>Dalvikskyrkan</name><desc>kyrkan i Jönköpings kommun</desc></wpt>
  <wpt lat="57.7840004" lon="14.15530014"><name>Slottskapellet</name><desc>kapell i Jönköping, Sverige, använt av Svenska kyrkan</desc></wpt>
  <wpt lat="57.78388486816299" lon="14.155327415311072"><name>Kyrka/kapell</name><desc>Grunden efter ett medeltida kapell, undersökt 1989–1990.</desc></wpt>
  <wpt lat="57.78195953" lon="14.15533066"><name>Jönköpings pingstkyrka</name><desc>kyrkobyggnad i Jönköping, Sverige</desc></wpt>
  <wpt lat="57.78073056" lon="14.15884444"><name>Immanuelskyrkan</name><desc>kyrkobyggnad i Equmeniakyrkan i Jönköping, Sverige</desc></wpt>
  <wpt lat="57.781943" lon="14.159703"><name>Sofiakyrkan</name><desc>kyrkobyggnad i Svenska kyrkan i Jönköping, Sverige</desc></wpt>
  <wpt lat="57.78192273327511" lon="14.15991323757577"><name>Sofia Kyrka</name><desc>Sofia kyrka, byggd sedan den växande västra församlingen blev trångbodd i slottskapellet.</desc></wpt>
  <wpt lat="57.783055555556" lon="14.164444444444"><name>Jungfru Maria och Sankt Nikolaus kyrka</name><desc>tidigare kyrka i Jönköping</desc></wpt>
  <wpt lat="57.780361675409345" lon="14.16738243218358"><name>Stadsbefästning</name><desc>Rester av bastionen Carolus och en gammal hamnstation.</desc></wpt>
  <wpt lat="57.77973261876925" lon="14.167739602444136"><name>Fästning/skans</name><desc>En bevarad stödmur från stadens södra befästningsvall vid Munksjön.</desc></wpt>
  <wpt lat="57.78194444" lon="14.17916667"><name>Kristine kyrka</name><desc>kyrkobyggnad i Jönköping</desc></wpt>
  <wpt lat="57.7812071" lon="14.1798654"><name>Jönköpings allianskyrka</name><desc>kyrkobyggnad i Svenska alliansmissionen i Jönköping, Sverige</desc></wpt>
  <wpt lat="57.78170013" lon="14.1953001"><name>Korskyrkan</name><desc>kyrka i Jönköping, Sverige</desc></wpt>
  <wpt lat="57.77817" lon="14.19861"><name>Östra kapellet</name><desc>kapell i Jönköping, Sverige</desc></wpt>
  <wpt lat="57.77778333" lon="14.22413333"><name>Ekhagskyrkan</name><desc>kyrkobyggnad i Ekhagen i Jönköping, Sverige, använd av Svenska kyrkan</desc></wpt>
  <wpt lat="57.787777777778" lon="14.238055555556"><name>Ansgariikyrkan</name><desc>kyrkobyggnad i Jönköping, Sverige</desc></wpt>
  <wpt lat="57.7858" lon="14.2443"><name>Österängskyrkan</name><desc>kyrkobyggnad i Svenska kyrkan i Österängen i Jönköping, Sverige</desc></wpt>
  <wpt lat="57.79005556" lon="14.25069444"><name>Sanna kyrka</name><desc>kyrkobyggnad i Svenska kyrkan i Jönköping, Sverige</desc></wpt>
  <wpt lat="57.78246" lon="14.26003"><name>Kungsportskyrkan</name><desc>EFK-kyrkobyggnad i Öxnehaga i Huskvarna, Sverige</desc></wpt>
  <wpt lat="57.787129" lon="14.272445"><name>Garpa skans</name><desc>fästning/skans i Småland (Hakarp 25:1)</desc></wpt>
  <wpt lat="57.7875" lon="14.27361111"><name>Huskvarna kyrka</name><desc>kyrkobyggnad i Svenska kyrkan i Huskvarna, Sverige</desc></wpt>
  <wpt lat="57.774025" lon="14.26343889"><name>Öxnehagakyrkan</name><desc>kyrkobyggnad på Öxnehaga i Huskvarna, Sverige, använd av Svenska kyrkan</desc></wpt>
  <wpt lat="57.75496" lon="14.17663"><name>Ljungarums kyrka</name><desc>kyrkobyggnad i Svenska kyrkan i Ljungarum i Jönköping, Sverige</desc></wpt>
  <wpt lat="57.7539" lon="14.1466"><name>Skogskapellet</name><desc>kapell i Jönköping, Sverige, använt av Svenska kyrkan</desc></wpt>
  <wpt lat="57.7648" lon="14.13633"><name>Gräshagskyrkan</name><desc>kyrkobyggnad i Svenska kyrkan på Gräshagen i Jönköping, Sverige</desc></wpt>
  <wpt lat="57.7713" lon="14.1512"><name>Jönköpings katolska kyrka</name><desc>romersk-katolsk kyrkobyggnad i Jönköping, Sverige</desc></wpt>
  <wpt lat="57.7394" lon="14.1505"><name>Råslätts kyrka</name><desc>kyrkobyggnad på Råslätt utanför Jönköping, Sverige, använd av Svenska kyrkan</desc></wpt>
  <wpt lat="57.74194444" lon="14.08472222"><name>Sandseryds kyrka</name><desc>kyrkobyggnad i Svenska kyrkan i Sandseryd, Sverige</desc></wpt>
  <wpt lat="57.80277778" lon="14.115"><name>Järstorps kyrka</name><desc>kyrkobyggnad i Jönköpings kommun</desc></wpt>
  <rte><name>Kyrkostigen i Jönköping</name>
    <rtept lat="57.84128" lon="14.14836"><name>Trånghalla kyrka</name></rtept>
    <rtept lat="57.81083333" lon="14.15416667"><name>Ceciliakyrkan</name></rtept>
    <rtept lat="57.79111111" lon="14.14048611"><name>Bymarkskyrkan</name></rtept>
    <rtept lat="57.7872" lon="14.146"><name>Dunkehalla kapell</name></rtept>
    <rtept lat="57.78335556" lon="14.13910833"><name>Bäckaby gamla kyrka</name></rtept>
    <rtept lat="57.787625" lon="14.13330556"><name>Dalvikskyrkan</name></rtept>
    <rtept lat="57.7840004" lon="14.15530014"><name>Slottskapellet</name></rtept>
    <rtept lat="57.78388486816299" lon="14.155327415311072"><name>Kyrka/kapell</name></rtept>
    <rtept lat="57.78195953" lon="14.15533066"><name>Jönköpings pingstkyrka</name></rtept>
    <rtept lat="57.78073056" lon="14.15884444"><name>Immanuelskyrkan</name></rtept>
    <rtept lat="57.781943" lon="14.159703"><name>Sofiakyrkan</name></rtept>
    <rtept lat="57.78192273327511" lon="14.15991323757577"><name>Sofia Kyrka</name></rtept>
    <rtept lat="57.783055555556" lon="14.164444444444"><name>Jungfru Maria och Sankt Nikolaus kyrka</name></rtept>
    <rtept lat="57.780361675409345" lon="14.16738243218358"><name>Stadsbefästning</name></rtept>
    <rtept lat="57.77973261876925" lon="14.167739602444136"><name>Fästning/skans</name></rtept>
    <rtept lat="57.78194444" lon="14.17916667"><name>Kristine kyrka</name></rtept>
    <rtept lat="57.7812071" lon="14.1798654"><name>Jönköpings allianskyrka</name></rtept>
    <rtept lat="57.78170013" lon="14.1953001"><name>Korskyrkan</name></rtept>
    <rtept lat="57.77817" lon="14.19861"><name>Östra kapellet</name></rtept>
    <rtept lat="57.77778333" lon="14.22413333"><name>Ekhagskyrkan</name></rtept>
    <rtept lat="57.787777777778" lon="14.238055555556"><name>Ansgariikyrkan</name></rtept>
    <rtept lat="57.7858" lon="14.2443"><name>Österängskyrkan</name></rtept>
    <rtept lat="57.79005556" lon="14.25069444"><name>Sanna kyrka</name></rtept>
    <rtept lat="57.78246" lon="14.26003"><name>Kungsportskyrkan</name></rtept>
    <rtept lat="57.787129" lon="14.272445"><name>Garpa skans</name></rtept>
    <rtept lat="57.7875" lon="14.27361111"><name>Huskvarna kyrka</name></rtept>
    <rtept lat="57.774025" lon="14.26343889"><name>Öxnehagakyrkan</name></rtept>
    <rtept lat="57.75496" lon="14.17663"><name>Ljungarums kyrka</name></rtept>
    <rtept lat="57.7539" lon="14.1466"><name>Skogskapellet</name></rtept>
    <rtept lat="57.7648" lon="14.13633"><name>Gräshagskyrkan</name></rtept>
    <rtept lat="57.7713" lon="14.1512"><name>Jönköpings katolska kyrka</name></rtept>
    <rtept lat="57.7394" lon="14.1505"><name>Råslätts kyrka</name></rtept>
    <rtept lat="57.74194444" lon="14.08472222"><name>Sandseryds kyrka</name></rtept>
    <rtept lat="57.80277778" lon="14.115"><name>Järstorps kyrka</name></rtept>
  </rte>
</gpx>
