<?xml version="1.0" encoding="UTF-8"?>
<gpx version="1.1" creator="Stadsvandring.io" xmlns="http://www.topografix.com/GPX/1/1">
<metadata><name>Kyrkostigen i Söderköping</name><link href="https://stadsvandring.io"><text>Stadsvandring.io</text></link></metadata>
  <wpt lat="58.52922222" lon="16.2915"><name>Tingstads kyrka</name><desc>kyrka i Sverige</desc></wpt>
  <wpt lat="58.5141" lon="16.3616"><name>Tåby kyrka</name><desc>kyrkobyggnad i Svenska kyrkan i Tåby, Sverige</desc></wpt>
  <wpt lat="58.49142041337756" lon="16.352588598997443"><name>Ramundersborg, Fornborg</name><desc>Ramundersborg, en fornborg med en huvudborg och en förborg, befäst av nio stenvallar.</desc></wpt>
  <wpt lat="58.48584772432935" lon="16.374277092872823"><name>Fornborg</name><desc>En fornborg skyddad av branta stup och befäst med kraftiga stenvallar.</desc></wpt>
  <wpt lat="58.46537" lon="16.35861"><name>Skönberga kyrka</name><desc>kyrkobyggnad i Söderköpings kommun</desc></wpt>
  <wpt lat="58.478861111111" lon="16.327472222222"><name>Pingstkyrkan</name><desc>kyrka i Söderköpings kommun</desc></wpt>
  <wpt lat="58.480203" lon="16.319364"><name>Sankt Laurentii kyrka</name><desc>kyrkobyggnad i Svenska kyrkan i Söderköping, Sverige</desc></wpt>
  <wpt lat="58.4815" lon="16.318916666667"><name>Vintervadskyrkan</name><desc>kyrka i Söderköpings kommun</desc></wpt>
  <wpt lat="58.48086" lon="16.31591"><name>Drothems kyrka</name><desc>kyrkobyggnad i Söderköpings kommun</desc></wpt>
  <wpt lat="58.46825" lon="16.317916666667"><name>Arken</name><desc>kyrka i Söderköpings kommun</desc></wpt>
  <rte><name>Kyrkostigen i Söderköping</name>
    <rtept lat="58.52922222" lon="16.2915"><name>Tingstads kyrka</name></rtept>
    <rtept lat="58.5141" lon="16.3616"><name>Tåby kyrka</name></rtept>
    <rtept lat="58.49142041337756" lon="16.352588598997443"><name>Ramundersborg, Fornborg</name></rtept>
    <rtept lat="58.48584772432935" lon="16.374277092872823"><name>Fornborg</name></rtept>
    <rtept lat="58.46537" lon="16.35861"><name>Skönberga kyrka</name></rtept>
    <rtept lat="58.478861111111" lon="16.327472222222"><name>Pingstkyrkan</name></rtept>
    <rtept lat="58.480203" lon="16.319364"><name>Sankt Laurentii kyrka</name></rtept>
    <rtept lat="58.4815" lon="16.318916666667"><name>Vintervadskyrkan</name></rtept>
    <rtept lat="58.48086" lon="16.31591"><name>Drothems kyrka</name></rtept>
    <rtept lat="58.46825" lon="16.317916666667"><name>Arken</name></rtept>
  </rte>
</gpx>
