<?xml version="1.0" encoding="UTF-8"?>
<gpx version="1.1" creator="Stadsvandring.io" xmlns="http://www.topografix.com/GPX/1/1">
<metadata><name>Konstrundan i Umeå</name><link href="https://stadsvandring.io"><text>Stadsvandring.io</text></link></metadata>
  <wpt lat="63.83571837310419" lon="20.254597822517606"><name>Minnesmärke</name><desc>Ett minnesmärke i Umeå med ännu ej kvalitetssäkrad beskrivning.</desc></wpt>
  <wpt lat="63.834174335732214" lon="20.259111841435452"><name>Minnesmärke</name><desc>Ett minnesmärke i Umeå med ännu ej kvalitetssäkrad beskrivning.</desc></wpt>
  <wpt lat="63.831807" lon="20.249676"><name>Järnfågel</name><desc>skulptur i Umeå</desc></wpt>
  <wpt lat="63.830333" lon="20.240894"><name>Studier och lek i skolan</name><desc>Studier och lek i skolan</desc></wpt>
  <wpt lat="63.82689" lon="20.250093"><name>Sittande kvinna vid källa</name><desc>skulptur i Umeå</desc></wpt>
  <wpt lat="63.825397" lon="20.258269"><name>Apollon 350</name><desc>Apollon 350</desc></wpt>
  <wpt lat="63.826111111111" lon="20.26"><name>Fontänskulptur</name><desc>skulptur i Umeå</desc></wpt>
  <wpt lat="63.825597222222" lon="20.262405555556"><name>Standing Man</name><desc>bronsskulptur</desc></wpt>
  <wpt lat="63.82548" lon="20.26332"><name>Listen</name><desc>skulptur i Umeå</desc></wpt>
  <wpt lat="63.825104" lon="20.262668"><name>Gustav II Adolfs byst</name><desc>En byst av Umeås grundare, Gustav II Adolf, är placerad mitt emellan Storgatan och dubbeltrappan på Rådhusets södra sida</desc></wpt>
  <wpt lat="63.82508703379547" lon="20.262589837297625"><name>Minnesmärke</name><desc>Ett minnesmärke i Umeå med ännu ej kvalitetssäkrad beskrivning.</desc></wpt>
  <wpt lat="63.823831" lon="20.264261"><name>Hantverk</name><desc>Hantverk</desc></wpt>
  <wpt lat="63.82382" lon="20.26778"><name>Hoppare</name><desc>Skulpturkonstverk i Umeå.</desc></wpt>
  <wpt lat="63.823555" lon="20.267978"><name>Dunkermomentet</name><desc>begravningsplats i Västerbotten</desc></wpt>
  <wpt lat="63.824333" lon="20.268567"><name>Tellus</name><desc>skulptur i Umeå</desc></wpt>
  <wpt lat="63.822931" lon="20.269997"><name>Wilhelm Peterson- Berger</name><desc>Wilhelm Peterson- Berger</desc></wpt>
  <wpt lat="63.82306561263525" lon="20.271430530032045"><name>Minnesmärke</name><desc>Ett minnesmärke i Umeå med ännu ej kvalitetssäkrad beskrivning.</desc></wpt>
  <wpt lat="63.824044" lon="20.272928"><name>Håll-ning, Mot-stod, För-står,</name><desc>Håll-ning, Mot-stod, För-står,</desc></wpt>
  <wpt lat="63.826395" lon="20.274275"><name>Lill-Inga</name><desc>Lill-Inga</desc></wpt>
  <wpt lat="63.826654" lon="20.27776"><name>Morgon</name><desc>skulptur i Umeå kommun</desc></wpt>
  <wpt lat="63.82802" lon="20.26786"><name>Laddningsplats för ljushuvuden</name><desc>Konstsoffor uppvärmda med fjärrvärme med inbyggd bredbandsanslutning.</desc></wpt>
  <wpt lat="63.827867" lon="20.265068"><name>Gustav Rosén</name><desc>skulptur i Umeå</desc></wpt>
  <wpt lat="63.826795" lon="20.265942"><name>Väsen</name><desc>Väsen</desc></wpt>
  <wpt lat="63.8294" lon="20.2664"><name>Grön eld, Umeå</name><desc>Grön eld är en 9 meter hög grön glasskulptur utförd av Vicke Lindstrand.</desc></wpt>
  <wpt lat="63.827976" lon="20.258957"><name>Ask och Embla</name><desc>Ask och Embla</desc></wpt>
  <wpt lat="63.820869444444" lon="20.261941666667"><name>Line of Thoughts</name><desc>Line of Thoughts är en bronsskulptur i Umeå, skapad av den brittiske konstnären Tony Cragg.</desc></wpt>
  <wpt lat="63.820018" lon="20.277196"><name>Odelsgutt</name><desc>Skulptur i Umeå</desc></wpt>
  <wpt lat="63.819722222222" lon="20.278888888889"><name>Skin 4</name><desc>skulptur i Umeå</desc></wpt>
  <wpt lat="63.819166666667" lon="20.281111111111"><name>2 × 3² Cube</name><desc>konstverk i Umeå</desc></wpt>
  <wpt lat="63.822592" lon="20.288628"><name>Struktur Mandala</name><desc>Struktur Mandala</desc></wpt>
  <wpt lat="63.82" lon="20.300833333333"><name>3D π</name><desc>skulptur i Umeå</desc></wpt>
  <wpt lat="63.820805555556" lon="20.302444444444"><name>Norra Skenet</name><desc>Norra skenet är en skulptur av Ernst Nordin och en symbol för Umeå universitet.</desc></wpt>
  <wpt lat="63.820555555556" lon="20.305833333333"><name>Vågspel</name><desc>skulptur i Umeå</desc></wpt>
  <wpt lat="63.831416666667" lon="20.278833333333"><name>Najad</name><desc>Konstverket Najad, skulptur och fontän i Umeå</desc></wpt>
  <wpt lat="63.822931376693994" lon="20.236875119925504"><name>Minnesmärke</name><desc>Ett minnesmärke i Umeå med ännu ej kvalitetssäkrad beskrivning.</desc></wpt>
  <wpt lat="63.835588888889" lon="20.166380555556"><name>Eye Benches II</name><desc>Eye Benches II är en skulptur av den fransk-amerikanska skulptören Louise Bourgeois, inköpt av Balticgruppen för Umedalens skulpturpark.</desc></wpt>
  <rte><name>Konstrundan i Umeå</name>
    <rtept lat="63.83571837310419" lon="20.254597822517606"><name>Minnesmärke</name></rtept>
    <rtept lat="63.834174335732214" lon="20.259111841435452"><name>Minnesmärke</name></rtept>
    <rtept lat="63.831807" lon="20.249676"><name>Järnfågel</name></rtept>
    <rtept lat="63.830333" lon="20.240894"><name>Studier och lek i skolan</name></rtept>
    <rtept lat="63.82689" lon="20.250093"><name>Sittande kvinna vid källa</name></rtept>
    <rtept lat="63.825397" lon="20.258269"><name>Apollon 350</name></rtept>
    <rtept lat="63.826111111111" lon="20.26"><name>Fontänskulptur</name></rtept>
    <rtept lat="63.825597222222" lon="20.262405555556"><name>Standing Man</name></rtept>
    <rtept lat="63.82548" lon="20.26332"><name>Listen</name></rtept>
    <rtept lat="63.825104" lon="20.262668"><name>Gustav II Adolfs byst</name></rtept>
    <rtept lat="63.82508703379547" lon="20.262589837297625"><name>Minnesmärke</name></rtept>
    <rtept lat="63.823831" lon="20.264261"><name>Hantverk</name></rtept>
    <rtept lat="63.82382" lon="20.26778"><name>Hoppare</name></rtept>
    <rtept lat="63.823555" lon="20.267978"><name>Dunkermomentet</name></rtept>
    <rtept lat="63.824333" lon="20.268567"><name>Tellus</name></rtept>
    <rtept lat="63.822931" lon="20.269997"><name>Wilhelm Peterson- Berger</name></rtept>
    <rtept lat="63.82306561263525" lon="20.271430530032045"><name>Minnesmärke</name></rtept>
    <rtept lat="63.824044" lon="20.272928"><name>Håll-ning, Mot-stod, För-står,</name></rtept>
    <rtept lat="63.826395" lon="20.274275"><name>Lill-Inga</name></rtept>
    <rtept lat="63.826654" lon="20.27776"><name>Morgon</name></rtept>
    <rtept lat="63.82802" lon="20.26786"><name>Laddningsplats för ljushuvuden</name></rtept>
    <rtept lat="63.827867" lon="20.265068"><name>Gustav Rosén</name></rtept>
    <rtept lat="63.826795" lon="20.265942"><name>Väsen</name></rtept>
    <rtept lat="63.8294" lon="20.2664"><name>Grön eld, Umeå</name></rtept>
    <rtept lat="63.827976" lon="20.258957"><name>Ask och Embla</name></rtept>
    <rtept lat="63.820869444444" lon="20.261941666667"><name>Line of Thoughts</name></rtept>
    <rtept lat="63.820018" lon="20.277196"><name>Odelsgutt</name></rtept>
    <rtept lat="63.819722222222" lon="20.278888888889"><name>Skin 4</name></rtept>
    <rtept lat="63.819166666667" lon="20.281111111111"><name>2 × 3² Cube</name></rtept>
    <rtept lat="63.822592" lon="20.288628"><name>Struktur Mandala</name></rtept>
    <rtept lat="63.82" lon="20.300833333333"><name>3D π</name></rtept>
    <rtept lat="63.820805555556" lon="20.302444444444"><name>Norra Skenet</name></rtept>
    <rtept lat="63.820555555556" lon="20.305833333333"><name>Vågspel</name></rtept>
    <rtept lat="63.831416666667" lon="20.278833333333"><name>Najad</name></rtept>
    <rtept lat="63.822931376693994" lon="20.236875119925504"><name>Minnesmärke</name></rtept>
    <rtept lat="63.835588888889" lon="20.166380555556"><name>Eye Benches II</name></rtept>
  </rte>
</gpx>
