<?xml version="1.0" encoding="UTF-8"?>
<gpx version="1.1" creator="Stadsvandring.io" xmlns="http://www.topografix.com/GPX/1/1">
<metadata><name>Kyrkostigen i Göteborg</name><link href="https://stadsvandring.io"><text>Stadsvandring.io</text></link></metadata>
  <wpt lat="57.7661" lon="11.9331"><name>Tuve kyrka</name><desc>kyrkobyggnad i Göteborgs kommun</desc></wpt>
  <wpt lat="57.75425556" lon="11.92711389"><name>Glöstorpskyrkan</name><desc>kyrkobyggnad i Göteborgs kommun</desc></wpt>
  <wpt lat="57.753861" lon="11.924415"><name>Immanuelkyrkan, Göteborg</name><desc>kyrkobyggnad på Hisingen, Göteborg</desc></wpt>
  <wpt lat="57.731772" lon="11.931973"><name>Sankta Maria Magdalenas katolska kyrka</name><desc>kyrkobyggnad i Göteborgs kommun</desc></wpt>
  <wpt lat="57.7265" lon="11.9391"><name>Bjurslättskyrkan</name><desc>Bjurslättskyrkan är en grekisk-ortodox kyrkobyggnad i stadsdelen Kvillebäcken på Hisingen i Göteborg.</desc></wpt>
  <wpt lat="57.71972222" lon="11.93897222"><name>Rambergskyrkan</name><desc>kyrkobyggnad i Göteborgs kommun</desc></wpt>
  <wpt lat="57.71833333" lon="11.94444444"><name>Brämaregårdens kyrka</name><desc>kyrkobyggnad i Göteborgs kommun</desc></wpt>
  <wpt lat="57.71604" lon="11.94739"><name>Sankt Matteus metodistkyrka</name><desc>kyrkobyggnad i Göteborgs kommun</desc></wpt>
  <wpt lat="57.71645" lon="11.96055"><name>Frihamnskyrkan</name><desc>pingstkyrka i Frihamnen, Göteborg</desc></wpt>
  <wpt lat="57.707298197603336" lon="11.963410310032275"><name>FD Göteborgs Handels- och Sjöfarts Tidning Tillbyggnad</name><desc>Tillbyggnad till Handelstidningens hus från 1904, senare tingsrätt.</desc></wpt>
  <wpt lat="57.706732855856046" lon="11.96494313602033"><name>CHRISTINÆ KYRKA</name><desc>Tysk församlings kyrka invigd 1648, uppkallad efter drottning Kristina.</desc></wpt>
  <wpt lat="57.70638889" lon="11.96527778"><name>Tyska kyrkan</name><desc>kyrkobyggnad i Göteborg, Sverige</desc></wpt>
  <wpt lat="57.70444444" lon="11.96444444"><name>Brädekyrkan i Göteborg</name><desc>kyrkobyggnad i Göteborgs kommun</desc></wpt>
  <wpt lat="57.704357630295" lon="11.963988908342099"><name>DOMKYRKOBRUNNEN</name><desc>En nyklassicistisk brunnsöverbyggnad från 1786, det sista tappstället från stadens första vattenledning.</desc></wpt>
  <wpt lat="57.704391818899" lon="11.966605355821"><name>Evangeliska brödrafösamlingens kyrka</name><desc>kyrka i Göteborg från 1802</desc></wpt>
  <wpt lat="57.70211111" lon="11.96175"><name>Saint Andrew&#39;s Church</name><desc>kyrkobyggnad i Göteborgs kommun</desc></wpt>
  <wpt lat="57.70164458207988" lon="11.957939416652115"><name>Fästning/skans</name><desc>En fästning eller skans i Göteborg utan närmare beskrivning i registret.</desc></wpt>
  <wpt lat="57.70238291731972" lon="11.95670021610585"><name>Bastion Kung Carl, Fästning/skans</name><desc>Bastion Kung Carl, en del av Göteborgs befästning, saknar närmare beskrivning i registret.</desc></wpt>
  <wpt lat="57.700572203138194" lon="11.955677428747284"><name>Frikyrka / bönehus /missionshus</name><desc>En frikyrkobyggnad i Göteborg från 1966.</desc></wpt>
  <wpt lat="57.69902778" lon="11.96227778"><name>Hagakyrkan</name><desc>kyrkobyggnad i Svenska kyrkan i Göteborg, Sverige</desc></wpt>
  <wpt lat="57.69927778" lon="11.96333333"><name>Smyrnakyrkan i Göteborg</name><desc>pingstförsamling i Göteborg</desc></wpt>
  <wpt lat="57.699335770317354" lon="11.963752258525"><name>Smyrnakyrkan</name><desc>Smyrnakyrkan från 1941 kombinerade ett sjuvånings höghus med en modernistisk fasad vid Haga kyrkoplan.</desc></wpt>
  <wpt lat="57.69783056" lon="11.96300556"><name>Lutherska missionskyrkan</name><desc>kyrkobyggnad i Göteborgs kommun</desc></wpt>
  <wpt lat="57.697140847534875" lon="11.96324508316561"><name>Haga Kyrkogata 18</name><desc>Byggnad vid Haga Kyrkogata från 1893, ombyggd 1982.</desc></wpt>
  <wpt lat="57.69653377822223" lon="11.963036222817916"><name>Haga Kyrkogata 22</name><desc>Hus i Haga från 1894 med portgång dekorationsmålad i vår tid.</desc></wpt>
  <wpt lat="57.69863333" lon="11.96763333"><name>Betlehemskyrkan</name><desc>kyrkobyggnad i Göteborgs kommun</desc></wpt>
  <wpt lat="57.69878802484315" lon="11.967471319820968"><name>NYA BETLEHEMSKYRKAN</name><desc>Kyrka från mitten av 1960-talet, framtagen i nära samarbete med hela församlingen.</desc></wpt>
  <wpt lat="57.697104661128144" lon="11.973102204576174"><name>VASA KYRKA</name><desc>Kyrka invigd 1909 vars bygge drabbades av svåra ekonomiska bekymmer.</desc></wpt>
  <wpt lat="57.697" lon="11.973388888889"><name>Vasakyrkan</name><desc>kyrkobyggnad i Göteborg, Sverige</desc></wpt>
  <wpt lat="57.69387321654361" lon="11.971542143038793"><name>Kapellplatsen 2 / Kapellgatan 6-8</name><desc>Bostadshus i 1920-talsklassicism vid Kapellplatsen.</desc></wpt>
  <wpt lat="57.691916666667" lon="11.973361111111"><name>Landala kapell</name><desc>kyrkobyggnad i Göteborgs kommun</desc></wpt>
  <wpt lat="57.69113" lon="11.98035"><name>Johannebergskyrkan</name><desc>kyrkobyggnad i Göteborgs kommun</desc></wpt>
  <wpt lat="57.69494737232551" lon="11.98677428837071"><name>Kvarteret 33 Skokloster</name><desc>En anläggning i kvarteret Skokloster från slutet av 1920-talet.</desc></wpt>
  <wpt lat="57.69856667" lon="11.99693056"><name>Örgryte gamla kyrka</name><desc>kyrkobyggnad Göteborg</desc></wpt>
  <wpt lat="57.7029" lon="12.0054"><name>Örgryte nya kyrka</name><desc>kyrkobyggnad i Svenska kyrkan i Örgryte i Göteborg, Sverige</desc></wpt>
  <wpt lat="57.70280953367732" lon="11.986196175443402"><name>Kyrka</name><desc>En kyrka i Göteborg från 1958.</desc></wpt>
  <wpt lat="57.70433" lon="11.97783"><name>Kristus Konungens katolska församling</name><desc>katolsk församling i Göteborg, Sverige</desc></wpt>
  <wpt lat="57.70777778" lon="11.98772222"><name>Mariakyrkan</name><desc>kyrkobyggnad i Svenska kyrkan i Göteborg, Sverige</desc></wpt>
  <wpt lat="57.71240396841951" lon="11.989994766387378"><name>Mosaiska kapellet</name><desc>Ett begravningskapell i morisk stil från 1864 på Göteborgs äldsta mosaiska begravningsplats.</desc></wpt>
  <wpt lat="57.7144179967421" lon="11.98996871608878"><name>Fästning/skans</name><desc>Fästningslämningar med murrester, vallar och vallgrav kring ett berg.</desc></wpt>
  <wpt lat="57.71432778" lon="12.00320833"><name>Sankt Pauli kyrka</name><desc>kyrkobyggnad i Svenska kyrkan i Göteborg, Sverige</desc></wpt>
  <wpt lat="57.719724" lon="12.022524"><name>Härlanda kyrkoruin</name><desc>kyrka/kapell i Västergötland (Göteborg 132:1)</desc></wpt>
  <wpt lat="57.7193" lon="12.02365"><name>Härlanda kyrka</name><desc>kyrkobyggnad i Svenska kyrkan i Göteborg, Sverige</desc></wpt>
  <wpt lat="57.71447" lon="12.04696"><name>Björkekärrs kyrka</name><desc>kyrkobyggnad i Göteborgs kommun</desc></wpt>
  <wpt lat="57.71519" lon="12.076557"><name>Ansgarskyrkan, Sävedalen</name><desc>kyrkobyggnad i Partille kommun</desc></wpt>
  <wpt lat="57.72838889" lon="12.07161111"><name>Sävedalens kyrka</name><desc>kyrkobyggnad i Partille kommun</desc></wpt>
  <wpt lat="57.7401" lon="12.05003"><name>Utby kyrka</name><desc>kyrkobyggnad i Göteborgs kommun</desc></wpt>
  <wpt lat="57.75148889" lon="12.034525"><name>Kortedalakyrkan</name><desc>kyrkobyggnad i Göteborgs kommun</desc></wpt>
  <wpt lat="57.74826111" lon="12.02826944"><name>Helige Stefan Dečanskis kyrka</name><desc>serbisk-ortodox kyrka i Kortedala, Sverige</desc></wpt>
  <wpt lat="57.740594" lon="12.018626"><name>Sankt olof och sankt sigfrids kapell</name><desc>kapell i Göteborgs kommun</desc></wpt>
  <wpt lat="57.73575" lon="12.007222222222"><name>Nylöse kyrka</name><desc>kyrkobyggnad i Göteborgs kommun</desc></wpt>
  <wpt lat="57.744" lon="11.98086111"><name>Backa kyrka</name><desc>kyrkobyggnad i Göteborgs kommun</desc></wpt>
  <wpt lat="57.748123" lon="11.982753"><name>Backadalskyrkan</name><desc>kyrkobyggnad i Göteborgs kommun</desc></wpt>
  <wpt lat="57.75069444" lon="11.98222222"><name>Bäckebols kyrksal</name><desc>kyrkobyggnad i Göteborgs kommun</desc></wpt>
  <wpt lat="57.7647212956" lon="11.977716002"><name>Fridhems kapell</name><desc>Göteborg kommun, Västra Götalands län</desc></wpt>
  <wpt lat="57.72805556" lon="11.97027778"><name>Brunnsbokyrkan</name><desc>kyrkobyggnad i Göteborgs kommun</desc></wpt>
  <wpt lat="57.73131667" lon="11.919325"><name>Toleredskyrkan</name><desc>kyrkobyggnad i Göteborgs kommun</desc></wpt>
  <wpt lat="57.73298611" lon="11.89263611"><name>Länsmansgårdens kyrka</name><desc>kyrkobyggnad i Göteborgs kommun</desc></wpt>
  <wpt lat="57.71927778" lon="11.89594444"><name>Norra Biskopsgårdens kyrka</name><desc>kyrkobyggnad i Svenska kyrkan på ön Hisingen i Göteborg, Sverige</desc></wpt>
  <wpt lat="57.71165556" lon="11.89118611"><name>Biskopsgårdens kyrka</name><desc>kyrkobyggnad i Svenska kyrkan i Biskopsgården, Sverige</desc></wpt>
  <wpt lat="57.71277778" lon="11.91527778"><name>Lundby gamla kyrka</name><desc>kyrkobyggnad i Göteborgs kommun</desc></wpt>
  <wpt lat="57.70722222" lon="11.91555556"><name>Lundby nya kyrka</name><desc>kyrkobyggnad i Svenska kyrkan i Lundby i Göteborg, Sverige</desc></wpt>
  <wpt lat="57.697618" lon="11.904807"><name>Lundby 92:1</name><desc>kyrka/kapell i Västergötland</desc></wpt>
  <wpt lat="57.69113889" lon="11.90958333"><name>Sankta Birgittas kapell</name><desc>kyrkobyggnad i Göteborgs kommun</desc></wpt>
  <wpt lat="57.69" lon="11.90694444"><name>Älvsborg</name><desc>medeltida befästningsanläggning vid Göta älvs utlopp i Göteborg</desc></wpt>
  <wpt lat="57.69624722" lon="11.9231"><name>Carl Johans kyrka</name><desc>kyrkobyggnad i Göteborg, Sweden</desc></wpt>
  <wpt lat="57.699561" lon="11.934521"><name>Sjömanskyrkan i Göteborg</name><desc>kyrkobyggnad och stiftelse i Göteborg</desc></wpt>
  <wpt lat="57.69877778" lon="11.93918056"><name>S:t Johanneskyrkan</name><desc>kyrkobyggnad i Göteborgs kommun (1866)</desc></wpt>
  <wpt lat="57.6971" lon="11.9375"><name>Masthuggskyrkan</name><desc>Mäktig tegelkyrka på höjden med en av stadens vidaste utsikter.</desc></wpt>
  <wpt lat="57.696666666667" lon="11.9475"><name>Oscar Fredriks kyrka</name><desc>kyrkobyggnad i Svenska kyrkan i Olivedal i Göteborg, Sverige</desc></wpt>
  <wpt lat="57.69633555114185" lon="11.955094950780865"><name>Fästning/skans</name><desc>En stjärnformig skans med kärntorn, uppförd kring år 1700 och i dag militärmuseum.</desc></wpt>
  <wpt lat="57.693079" lon="11.958672"><name>Saronkyrkan</name><desc>kyrkobyggnad i Göteborgs kommun</desc></wpt>
  <wpt lat="57.68716" lon="11.95405"><name>Annedalskyrkan</name><desc>kyrkobyggnad i Göteborg</desc></wpt>
  <wpt lat="57.685125" lon="11.97302778"><name>Guldhedskyrkan</name><desc>kyrkobyggnad i Göteborgs kommun</desc></wpt>
  <wpt lat="57.68486111" lon="11.97372222"><name>Barackkyrkan</name><desc>kyrkobyggnad i Göteborgs kommun</desc></wpt>
  <wpt lat="57.68136667" lon="11.989225"><name>Buråskyrkan</name><desc>kyrkobyggnad i Svenska kyrkan i Göteborg, Sverige</desc></wpt>
  <wpt lat="57.67305556" lon="11.98027778"><name>Toltorpskyrkan</name><desc>kyrkobyggnad i Mölndals kommun</desc></wpt>
  <wpt lat="57.67314167" lon="12.00436944"><name>Krokslättskyrkan</name><desc>kyrkobyggnad i Mölndals kommun</desc></wpt>
  <wpt lat="57.65625" lon="12.00972176"><name>Fässbergs kyrka</name><desc>kyrkobyggnad i Svenska kyrkan i Mölndal, Sverige</desc></wpt>
  <wpt lat="57.653555" lon="11.985483"><name>Fässbergs kapell</name><desc>kapell i Mölndals kommun</desc></wpt>
  <wpt lat="57.66277778" lon="12.03388889"><name>Stensjökyrkan</name><desc>kyrkobyggnad i Mölndals kommun</desc></wpt>
  <wpt lat="57.69086389" lon="12.00673611"><name>Skårs kyrka</name><desc>kyrkobyggnad i Göteborgs kommun</desc></wpt>
  <wpt lat="57.68991944" lon="11.93250556"><name>Pater Nosterkyrkan</name><desc>kyrkobyggnad i Göteborgs kommun</desc></wpt>
  <wpt lat="57.68101111" lon="11.92727222"><name>Kungsladugårds kyrka</name><desc>kyrkobyggnad i Göteborgs kommun</desc></wpt>
  <wpt lat="57.67111944" lon="11.93027222"><name>Högsbo kyrka</name><desc>kyrkobyggnad i Göteborgs kommun</desc></wpt>
  <wpt lat="57.66352778" lon="11.93158333"><name>Flatåskyrkan</name><desc>kyrkobyggnad i Göteborg</desc></wpt>
  <wpt lat="57.66214722" lon="11.92365833"><name>Kaverös kyrka</name><desc>kyrkobyggnad i Göteborgs kommun</desc></wpt>
  <wpt lat="57.67561" lon="11.88441"><name>Älvsborgs kyrka</name><desc>kyrkobyggnad i Göteborgs kommun</desc></wpt>
  <rte><name>Kyrkostigen i Göteborg</name>
    <rtept lat="57.7661" lon="11.9331"><name>Tuve kyrka</name></rtept>
    <rtept lat="57.75425556" lon="11.92711389"><name>Glöstorpskyrkan</name></rtept>
    <rtept lat="57.753861" lon="11.924415"><name>Immanuelkyrkan, Göteborg</name></rtept>
    <rtept lat="57.731772" lon="11.931973"><name>Sankta Maria Magdalenas katolska kyrka</name></rtept>
    <rtept lat="57.7265" lon="11.9391"><name>Bjurslättskyrkan</name></rtept>
    <rtept lat="57.71972222" lon="11.93897222"><name>Rambergskyrkan</name></rtept>
    <rtept lat="57.71833333" lon="11.94444444"><name>Brämaregårdens kyrka</name></rtept>
    <rtept lat="57.71604" lon="11.94739"><name>Sankt Matteus metodistkyrka</name></rtept>
    <rtept lat="57.71645" lon="11.96055"><name>Frihamnskyrkan</name></rtept>
    <rtept lat="57.707298197603336" lon="11.963410310032275"><name>FD Göteborgs Handels- och Sjöfarts Tidning Tillbyggnad</name></rtept>
    <rtept lat="57.706732855856046" lon="11.96494313602033"><name>CHRISTINÆ KYRKA</name></rtept>
    <rtept lat="57.70638889" lon="11.96527778"><name>Tyska kyrkan</name></rtept>
    <rtept lat="57.70444444" lon="11.96444444"><name>Brädekyrkan i Göteborg</name></rtept>
    <rtept lat="57.704357630295" lon="11.963988908342099"><name>DOMKYRKOBRUNNEN</name></rtept>
    <rtept lat="57.704391818899" lon="11.966605355821"><name>Evangeliska brödrafösamlingens kyrka</name></rtept>
    <rtept lat="57.70211111" lon="11.96175"><name>Saint Andrew&#39;s Church</name></rtept>
    <rtept lat="57.70164458207988" lon="11.957939416652115"><name>Fästning/skans</name></rtept>
    <rtept lat="57.70238291731972" lon="11.95670021610585"><name>Bastion Kung Carl, Fästning/skans</name></rtept>
    <rtept lat="57.700572203138194" lon="11.955677428747284"><name>Frikyrka / bönehus /missionshus</name></rtept>
    <rtept lat="57.69902778" lon="11.96227778"><name>Hagakyrkan</name></rtept>
    <rtept lat="57.69927778" lon="11.96333333"><name>Smyrnakyrkan i Göteborg</name></rtept>
    <rtept lat="57.699335770317354" lon="11.963752258525"><name>Smyrnakyrkan</name></rtept>
    <rtept lat="57.69783056" lon="11.96300556"><name>Lutherska missionskyrkan</name></rtept>
    <rtept lat="57.697140847534875" lon="11.96324508316561"><name>Haga Kyrkogata 18</name></rtept>
    <rtept lat="57.69653377822223" lon="11.963036222817916"><name>Haga Kyrkogata 22</name></rtept>
    <rtept lat="57.69863333" lon="11.96763333"><name>Betlehemskyrkan</name></rtept>
    <rtept lat="57.69878802484315" lon="11.967471319820968"><name>NYA BETLEHEMSKYRKAN</name></rtept>
    <rtept lat="57.697104661128144" lon="11.973102204576174"><name>VASA KYRKA</name></rtept>
    <rtept lat="57.697" lon="11.973388888889"><name>Vasakyrkan</name></rtept>
    <rtept lat="57.69387321654361" lon="11.971542143038793"><name>Kapellplatsen 2 / Kapellgatan 6-8</name></rtept>
    <rtept lat="57.691916666667" lon="11.973361111111"><name>Landala kapell</name></rtept>
    <rtept lat="57.69113" lon="11.98035"><name>Johannebergskyrkan</name></rtept>
    <rtept lat="57.69494737232551" lon="11.98677428837071"><name>Kvarteret 33 Skokloster</name></rtept>
    <rtept lat="57.69856667" lon="11.99693056"><name>Örgryte gamla kyrka</name></rtept>
    <rtept lat="57.7029" lon="12.0054"><name>Örgryte nya kyrka</name></rtept>
    <rtept lat="57.70280953367732" lon="11.986196175443402"><name>Kyrka</name></rtept>
    <rtept lat="57.70433" lon="11.97783"><name>Kristus Konungens katolska församling</name></rtept>
    <rtept lat="57.70777778" lon="11.98772222"><name>Mariakyrkan</name></rtept>
    <rtept lat="57.71240396841951" lon="11.989994766387378"><name>Mosaiska kapellet</name></rtept>
    <rtept lat="57.7144179967421" lon="11.98996871608878"><name>Fästning/skans</name></rtept>
    <rtept lat="57.71432778" lon="12.00320833"><name>Sankt Pauli kyrka</name></rtept>
    <rtept lat="57.719724" lon="12.022524"><name>Härlanda kyrkoruin</name></rtept>
    <rtept lat="57.7193" lon="12.02365"><name>Härlanda kyrka</name></rtept>
    <rtept lat="57.71447" lon="12.04696"><name>Björkekärrs kyrka</name></rtept>
    <rtept lat="57.71519" lon="12.076557"><name>Ansgarskyrkan, Sävedalen</name></rtept>
    <rtept lat="57.72838889" lon="12.07161111"><name>Sävedalens kyrka</name></rtept>
    <rtept lat="57.7401" lon="12.05003"><name>Utby kyrka</name></rtept>
    <rtept lat="57.75148889" lon="12.034525"><name>Kortedalakyrkan</name></rtept>
    <rtept lat="57.74826111" lon="12.02826944"><name>Helige Stefan Dečanskis kyrka</name></rtept>
    <rtept lat="57.740594" lon="12.018626"><name>Sankt olof och sankt sigfrids kapell</name></rtept>
    <rtept lat="57.73575" lon="12.007222222222"><name>Nylöse kyrka</name></rtept>
    <rtept lat="57.744" lon="11.98086111"><name>Backa kyrka</name></rtept>
    <rtept lat="57.748123" lon="11.982753"><name>Backadalskyrkan</name></rtept>
    <rtept lat="57.75069444" lon="11.98222222"><name>Bäckebols kyrksal</name></rtept>
    <rtept lat="57.7647212956" lon="11.977716002"><name>Fridhems kapell</name></rtept>
    <rtept lat="57.72805556" lon="11.97027778"><name>Brunnsbokyrkan</name></rtept>
    <rtept lat="57.73131667" lon="11.919325"><name>Toleredskyrkan</name></rtept>
    <rtept lat="57.73298611" lon="11.89263611"><name>Länsmansgårdens kyrka</name></rtept>
    <rtept lat="57.71927778" lon="11.89594444"><name>Norra Biskopsgårdens kyrka</name></rtept>
    <rtept lat="57.71165556" lon="11.89118611"><name>Biskopsgårdens kyrka</name></rtept>
    <rtept lat="57.71277778" lon="11.91527778"><name>Lundby gamla kyrka</name></rtept>
    <rtept lat="57.70722222" lon="11.91555556"><name>Lundby nya kyrka</name></rtept>
    <rtept lat="57.697618" lon="11.904807"><name>Lundby 92:1</name></rtept>
    <rtept lat="57.69113889" lon="11.90958333"><name>Sankta Birgittas kapell</name></rtept>
    <rtept lat="57.69" lon="11.90694444"><name>Älvsborg</name></rtept>
    <rtept lat="57.69624722" lon="11.9231"><name>Carl Johans kyrka</name></rtept>
    <rtept lat="57.699561" lon="11.934521"><name>Sjömanskyrkan i Göteborg</name></rtept>
    <rtept lat="57.69877778" lon="11.93918056"><name>S:t Johanneskyrkan</name></rtept>
    <rtept lat="57.6971" lon="11.9375"><name>Masthuggskyrkan</name></rtept>
    <rtept lat="57.696666666667" lon="11.9475"><name>Oscar Fredriks kyrka</name></rtept>
    <rtept lat="57.69633555114185" lon="11.955094950780865"><name>Fästning/skans</name></rtept>
    <rtept lat="57.693079" lon="11.958672"><name>Saronkyrkan</name></rtept>
    <rtept lat="57.68716" lon="11.95405"><name>Annedalskyrkan</name></rtept>
    <rtept lat="57.685125" lon="11.97302778"><name>Guldhedskyrkan</name></rtept>
    <rtept lat="57.68486111" lon="11.97372222"><name>Barackkyrkan</name></rtept>
    <rtept lat="57.68136667" lon="11.989225"><name>Buråskyrkan</name></rtept>
    <rtept lat="57.67305556" lon="11.98027778"><name>Toltorpskyrkan</name></rtept>
    <rtept lat="57.67314167" lon="12.00436944"><name>Krokslättskyrkan</name></rtept>
    <rtept lat="57.65625" lon="12.00972176"><name>Fässbergs kyrka</name></rtept>
    <rtept lat="57.653555" lon="11.985483"><name>Fässbergs kapell</name></rtept>
    <rtept lat="57.66277778" lon="12.03388889"><name>Stensjökyrkan</name></rtept>
    <rtept lat="57.69086389" lon="12.00673611"><name>Skårs kyrka</name></rtept>
    <rtept lat="57.68991944" lon="11.93250556"><name>Pater Nosterkyrkan</name></rtept>
    <rtept lat="57.68101111" lon="11.92727222"><name>Kungsladugårds kyrka</name></rtept>
    <rtept lat="57.67111944" lon="11.93027222"><name>Högsbo kyrka</name></rtept>
    <rtept lat="57.66352778" lon="11.93158333"><name>Flatåskyrkan</name></rtept>
    <rtept lat="57.66214722" lon="11.92365833"><name>Kaverös kyrka</name></rtept>
    <rtept lat="57.67561" lon="11.88441"><name>Älvsborgs kyrka</name></rtept>
  </rte>
</gpx>
