<?xml version="1.0" encoding="UTF-8"?>
<gpx version="1.1" creator="Stadsvandring.io" xmlns="http://www.topografix.com/GPX/1/1">
<metadata><name>Kyrkostigen i Stockholm</name><link href="https://stadsvandring.io"><text>Stadsvandring.io</text></link></metadata>
  <wpt lat="59.38055556" lon="18.035"><name>Bergshamra kyrka</name><desc>kyrkobyggnad i Solna kommun</desc></wpt>
  <wpt lat="59.36248" lon="18.0086"><name>Hagalunds kyrka</name><desc>kyrkobyggnad i Solna kommun</desc></wpt>
  <wpt lat="59.36166667" lon="17.99472222"><name>Ekensbergskyrkan</name><desc>kyrkobyggnad i Solna kommun</desc></wpt>
  <wpt lat="59.36855278" lon="17.98775278"><name>Råsunda kyrka</name><desc>distriktskyrka i Solna</desc></wpt>
  <wpt lat="59.359333333333" lon="17.971166666667"><name>Alby kyrka</name><desc>kyrkobyggnad i Sundbybergs kommun</desc></wpt>
  <wpt lat="59.353775" lon="17.99535"><name>Löftets kyrka</name><desc>kyrkobyggnad i Solna kommun</desc></wpt>
  <wpt lat="59.353055555556" lon="18.024055555556"><name>Solna kyrka</name><desc>kyrka i Stockholms stift</desc></wpt>
  <wpt lat="59.35717" lon="18.02894"><name>Katolska kyrkogårdens kapell</name><desc>Katolska kyrkogårdens kapell</desc></wpt>
  <wpt lat="59.345861111111" lon="18.026166666667"><name>Ryska vallarna</name><desc>försvarsanläggning belägen inom Campus Solna</desc></wpt>
  <wpt lat="59.3425" lon="18.032777777778"><name>Mikaelskapellet</name><desc>Mikaelskapellet, ursprungligen Emauskyrkan, är ett kapell på Karlbergsvägen 64 i Vasastan som tillhör S:t Matteus församling i Domkyrkokontraktet i Stockholms stift.</desc></wpt>
  <wpt lat="59.339444444444" lon="18.034444444444"><name>Filadelfiakyrkan, Stockholm</name><desc>kyrkobyggnad Stockholm</desc></wpt>
  <wpt lat="59.338055555556" lon="18.042222222222"><name>Sabbatsbergs kyrka</name><desc>kyrka i Vasastan i centrala Stockholm</desc></wpt>
  <wpt lat="59.334166666667" lon="18.041388888889"><name>Sankt Eriks kapell</name><desc>kapell på Kungsholmen i Stockholm</desc></wpt>
  <wpt lat="59.33111111" lon="18.04638889"><name>Ansgariikyrkan</name><desc>kyrkobyggnad i Stockholms kommun</desc></wpt>
  <wpt lat="59.328888888889" lon="18.048611111111"><name>Kungsholms kyrka</name><desc>kyrkobyggnad i Svenska kyrkan på ön Kungsholmen i Stockholm, Sverige</desc></wpt>
  <wpt lat="59.330833333333" lon="18.035416666667"><name>Kungsholms baptistkyrka</name><desc>kyrkobyggnad i Stockholms kommun</desc></wpt>
  <wpt lat="59.334583333333" lon="18.023888888889"><name>Sankt Görans kyrka</name><desc>kyrka på Kungsholmen i Stockholm</desc></wpt>
  <wpt lat="59.345277777778" lon="18.0425"><name>Sankt Matteus kyrka</name><desc>kyrkobyggnad i Svenska kyrkan i Vasastan i centrala Stockholm, Sverige</desc></wpt>
  <wpt lat="59.345" lon="18.048611111111"><name>Norrmalmskyrkan</name><desc>kyrka på Norrmalm i centrala Stockholm</desc></wpt>
  <wpt lat="59.3425" lon="18.0475"><name>Gustaf Vasa kyrka</name><desc>församlingskyrka i centrala Stockholm, Sverige</desc></wpt>
  <wpt lat="59.34277778" lon="18.05861111"><name>Betlehemskyrkan</name><desc>kyrka i Stockholm</desc></wpt>
  <wpt lat="59.3425" lon="18.063333333333"><name>Immanuelskyrkan, Stockholm</name><desc>kyrkobyggnad i centrala Stockholm</desc></wpt>
  <wpt lat="59.3425" lon="18.064166666667"><name>Korskyrkan</name><desc>kyrka i centrala Stockholm</desc></wpt>
  <wpt lat="59.34111111" lon="18.06305556"><name>Immanuelskyrkan</name><desc>kyrka på Tulegatan, Stockholm</desc></wpt>
  <wpt lat="59.33944444" lon="18.06444444"><name>Sankt Johannes kyrka</name><desc>romersk-katolsk kyrkobyggnad på Norrmalm, Stockholm</desc></wpt>
  <wpt lat="59.337808333333" lon="18.068447222222"><name>Roseniuskyrkan</name><desc>kyrkobyggnad i Stockholms kommun</desc></wpt>
  <wpt lat="59.336502777778" lon="18.075402777778"><name>Franska reformerta kyrkan</name><desc>kyrka i Stockholm</desc></wpt>
  <wpt lat="59.336666666667" lon="18.0775"><name>Trefaldighetskyrkan</name><desc>kyrka på Östermalm i Stockholm</desc></wpt>
  <wpt lat="59.33527778" lon="18.08055556"><name>Hedvig Eleonora kyrka</name><desc>kyrkobyggnad i Stockholm, Sverige</desc></wpt>
  <wpt lat="59.33433333" lon="18.08633333"><name>Elimkyrkan</name><desc>kyrkobyggnad i Stockholms kommun</desc></wpt>
  <wpt lat="59.333333333333" lon="18.093333333333"><name>Oscarskyrkan</name><desc>kyrkobyggnad på Stockholm</desc></wpt>
  <wpt lat="59.332638888889" lon="18.102361111111"><name>Engelska kyrkan</name><desc>anglikansk kyrkobyggnad på Östermalm i Stockholm</desc></wpt>
  <wpt lat="59.3375" lon="18.098333333333"><name>Gustaf Adolfskyrkan</name><desc>kyrkobyggnad i Svenska kyrkan på Östermalm i Stockholm</desc></wpt>
  <wpt lat="59.344861111111" lon="18.088055555556"><name>Olaus Petri kyrka</name><desc>kyrka på Gärdet i Stockholm</desc></wpt>
  <wpt lat="59.34222222" lon="18.07555556"><name>Florakyrkan</name><desc>kyrkobyggnad i Stockholms kommun</desc></wpt>
  <wpt lat="59.346" lon="18.062666666667"><name>Sankt Georgios kyrka</name><desc>grekisk-ortodox kyrka i Östermalm, Stockholm</desc></wpt>
  <wpt lat="59.346666666667" lon="18.061944444444"><name>Kristi förklarings ortodoxa kyrka</name><desc>rysk-ortodox kyrka i Vasastan i centrala Stockholm</desc></wpt>
  <wpt lat="59.3475" lon="18.054722222222"><name>Stefanskyrkan</name><desc>kyrka i Vasastan i centrala Stockholm</desc></wpt>
  <wpt lat="59.348333333333" lon="18.047777777778"><name>Messiaskapellet</name><desc>f.d. kyrka i Vasastan i Stockholm</desc></wpt>
  <wpt lat="59.3376832" lon="18.0550587"><name>Swedenborgs Minneskyrka</name><desc>kyrkobyggnad i Stockholms kommun</desc></wpt>
  <wpt lat="59.337222222222" lon="18.054166666667"><name>Sankt Peterskyrkan</name><desc>kyrkobyggnad i Equmeniakyrkan på Norrmalm i centrala Stockholm, Sverige</desc></wpt>
  <wpt lat="59.336611111111" lon="18.058416666667"><name>Barnhuskyrkan</name><desc>kyrka under 1700-talet i Stockholm</desc></wpt>
  <wpt lat="59.337222222222" lon="18.059166666667"><name>Citykyrkan</name><desc>kyrka i centrala Stockholm</desc></wpt>
  <wpt lat="59.337777777778" lon="18.060277777778"><name>Adolf Fredriks kyrka</name><desc>kyrkobyggnad i Stockholm, Sverige</desc></wpt>
  <wpt lat="59.3325" lon="18.06138889"><name>Missionskyrkan Valhalla</name><desc>kyrkobyggnad i Stockholms kommun</desc></wpt>
  <wpt lat="59.33111111" lon="18.06166667"><name>Klara kyrka</name><desc>kyrka i centrala Stockholm</desc></wpt>
  <wpt lat="59.331735" lon="18.072427"><name>Sankta Eugenia katolska församling</name><desc>katolsk församling i Stockholm</desc></wpt>
  <wpt lat="59.32991667" lon="18.07655556"><name>Blasieholmskyrkan</name><desc>tidigare kyrkobyggnad i Stockholm, Sverige</desc></wpt>
  <wpt lat="59.32653889" lon="18.072725"><name>Slottskyrkan</name><desc>kyrksal inuti Stockholms slott i Sverige</desc></wpt>
  <wpt lat="59.325555555556" lon="18.072222222222"><name>Finska kyrkan</name><desc>kyrkobyggnad i Svenska kyrkan i Gamla stan i Stockholm, Sverige</desc></wpt>
  <wpt lat="59.3258" lon="18.0706"><name>Storkyrkan</name><desc>Stockholms domkyrka, där kungar krönts och vigts sedan medeltiden.</desc></wpt>
  <wpt lat="59.32373889" lon="18.07385833"><name>S:t Johanneskyrkan</name><desc>medeltida klosterkyrka i Gamla stan, Stockholm</desc></wpt>
  <wpt lat="59.3247" lon="18.0647"><name>Riddarholmskyrkan</name><desc>Medeltida klosterkyrka och de svenska kungarnas gravkyrka.</desc></wpt>
  <wpt lat="59.324280555556" lon="18.064002777778"><name>Gråbrödraklostret i Stockholm</name><desc>Föredetta Kloster, Riddarholmen Stockholm</desc></wpt>
  <wpt lat="59.31944444" lon="18.06305556"><name>Söderhöjdskyrkan</name><desc>kyrkobyggnad i Stockholms kommun</desc></wpt>
  <wpt lat="59.317777777778" lon="18.062222222222"><name>S:t Paulskyrkan</name><desc>kyrka på Södermalm i Stockholm</desc></wpt>
  <wpt lat="59.318994444444" lon="18.067216666667"><name>Maria Magdalena kyrka</name><desc>kyrkobyggnad i Stockholm, Sverige</desc></wpt>
  <wpt lat="59.31638889" lon="18.07319444"><name>Andreaskyrkan</name><desc>kyrka på Södermalm i Stockholm</desc></wpt>
  <wpt lat="59.317083333333" lon="18.078055555556"><name>Katarina kyrka</name><desc>kyrkobyggnad på Södermalm i Stockholm</desc></wpt>
  <wpt lat="59.314722222222" lon="18.080555555556"><name>Salemkyrkan</name><desc>kyrka på Södermalm i Stockholm</desc></wpt>
  <wpt lat="59.316611111111" lon="18.084166666667"><name>Kronprinsessan Märthas kyrka</name><desc>kyrkobyggnad i Norska kyrkans på Södermalm i Stockholm, Sverige</desc></wpt>
  <wpt lat="59.31646944" lon="18.0913"><name>Ersta kyrka</name><desc>kyrkobyggnad i Svenska kyrkan i Stockholm, Sverige</desc></wpt>
  <wpt lat="59.312222222222" lon="18.088333333333"><name>Sofia kyrka</name><desc>kyrkobyggnad i Sofia församling i Stockholms stift på Södermalm i Stockholm</desc></wpt>
  <wpt lat="59.30981944" lon="18.07074444"><name>Allhelgonakyrkan</name><desc>kyrka på Södermalm i Stockholm</desc></wpt>
  <wpt lat="59.296666666667" lon="18.081944444444"><name>Johanneshovs skans</name><desc>fästning/skans i Södermanland (Brännkyrka 160:1)</desc></wpt>
  <wpt lat="59.295277777778" lon="18.093611111111"><name>Hammarbykyrkan</name><desc>kyrkobyggnad i Evangeliska fosterlandsstiftelsen i Stockholm, Sverige</desc></wpt>
  <wpt lat="59.303055555556" lon="18.104583333333"><name>Sjöstadskapellet</name><desc>kapell i Hammarby sjöstad, Stockholm</desc></wpt>
  <wpt lat="59.29194444" lon="18.11694444"><name>Markuskyrkan</name><desc>kyrka i Björkhagen, södra Stockholm</desc></wpt>
  <wpt lat="59.2825" lon="18.096944444444"><name>Sandsborgskapellet</name><desc>kapell på Sandsborgskyrkogården</desc></wpt>
  <wpt lat="59.284949" lon="18.086551"><name>Triangelkyrkan</name><desc>Triangelkyrkan</desc></wpt>
  <wpt lat="59.284527777778" lon="18.081388888889"><name>Enskede kyrka</name><desc>kyrkobyggnad i Stockholm, Sverige</desc></wpt>
  <wpt lat="59.289444444444" lon="18.061666666667"><name>Sankt Sava serbisk-ortodoxa kyrka</name><desc>serbisk-ortodox kyrka i Enskede gård, Sverige</desc></wpt>
  <wpt lat="59.295555555556" lon="18.051666666667"><name>Årsta kyrka</name><desc>kyrka i Årsta i södra Stockholm</desc></wpt>
  <wpt lat="59.312777777778" lon="18.042777777778"><name>Tantolundens luftvärnsställning</name><desc>försvarsanläggning på Södermalm i Stockholm</desc></wpt>
  <wpt lat="59.3175" lon="18.0375"><name>Högalidskyrkan</name><desc>kyrkobyggnad i Svenska kyrkan på Södermalm i Stockholm, Sverige</desc></wpt>
  <wpt lat="59.315" lon="18.007777777778"><name>Gröndals kyrka</name><desc>kyrka i Gröndal i södra Stockholm</desc></wpt>
  <wpt lat="59.31" lon="18.006666666667"><name>Sankt Sigfrids kyrka</name><desc>kyrka i Aspudden, södra Stockholm</desc></wpt>
  <wpt lat="59.304027777778" lon="18.001666666667"><name>Uppenbarelsekyrkan</name><desc>kyrkobyggnad i Svenska kyrkan i Hägersten i Stockholm, Sverige</desc></wpt>
  <wpt lat="59.320833333333" lon="17.990138888889"><name>Essinge kyrka</name><desc>kyrka på Stora Essingen i Stockholm</desc></wpt>
  <wpt lat="59.322222222222" lon="17.994722222222"><name>S:t Mikaels och Alla Änglars kyrka</name><desc>kyrka på Stora Essingen i Stockholm</desc></wpt>
  <wpt lat="59.334527777778" lon="17.978055555556"><name>Sankt Ansgars kyrka</name><desc>kyrka i Alvik i västra Stockholm</desc></wpt>
  <wpt lat="59.327777777778" lon="17.9675"><name>Västerledskyrkan</name><desc>kyrka i Bromma i västra Stockholm</desc></wpt>
  <wpt lat="59.334583333333" lon="17.953333333333"><name>Abrahamsbergskyrkan</name><desc>kyrkobyggnad i Stockholms kommun</desc></wpt>
  <wpt lat="59.30011111" lon="17.96391667"><name>Betelkyrkan</name><desc>frikyrka i Mälarhöjden i södra Stockholm</desc></wpt>
  <wpt lat="59.28194444" lon="18.02305556"><name>Brännkyrka kyrka</name><desc>kyrka i södra Stockholm</desc></wpt>
  <wpt lat="59.276436" lon="18.100433"><name>Trons kapell</name><desc>kapell i Stockholms kommun</desc></wpt>
  <wpt lat="59.276227" lon="18.100717"><name>Hoppets kapell</name><desc>kapell i Stockholms kommun</desc></wpt>
  <wpt lat="59.269027777778" lon="18.101944444444"><name>Uppståndelsekapellet</name><desc>kapell på Skogskyrkogården i Enskede, södra Stockholm</desc></wpt>
  <wpt lat="59.27723333" lon="18.1329"><name>Bagarmossens kyrka</name><desc>kyrkobyggnad i Svenska kyrkan i Bagarmossen, Sverige</desc></wpt>
  <wpt lat="59.30715556" lon="18.14309444"><name>Nacka kyrka</name><desc>kyrkobyggnad i Nacka kommun</desc></wpt>
  <wpt lat="59.3262" lon="18.1064"><name>Seglora kyrka</name><desc>kyrkobyggnad på Skansen, Djurgården i Stockholm</desc></wpt>
  <wpt lat="59.324166666667" lon="18.098333333333"><name>Djurgårdskyrkan</name><desc>kyrka på Djurgården i Stockholm</desc></wpt>
  <wpt lat="59.3278906" lon="18.0941002"><name>Galärvarvskapellet</name><desc>kapell på Djurgården</desc></wpt>
  <wpt lat="59.355" lon="18.103333333333"><name>Hjorthagens kyrka</name><desc>kyrkobyggnad i Svenska kyrkan i Hjorthagen i Stockholm, Sverige</desc></wpt>
  <wpt lat="59.36555556" lon="18.13222222"><name>Ansgarskyrkan, Lidingö</name><desc>kyrkobyggnad i Lidingö kommun</desc></wpt>
  <wpt lat="59.36669444" lon="18.15727778"><name>Lidingö kyrka</name><desc>kyrkobyggnad i Svenska kyrkan i Lidingö, Sverige</desc></wpt>
  <wpt lat="59.35005" lon="18.13815"><name>Bodals kyrka</name><desc>kyrkobyggnad i Lidingö kommun</desc></wpt>
  <rte><name>Kyrkostigen i Stockholm</name>
    <rtept lat="59.38055556" lon="18.035"><name>Bergshamra kyrka</name></rtept>
    <rtept lat="59.36248" lon="18.0086"><name>Hagalunds kyrka</name></rtept>
    <rtept lat="59.36166667" lon="17.99472222"><name>Ekensbergskyrkan</name></rtept>
    <rtept lat="59.36855278" lon="17.98775278"><name>Råsunda kyrka</name></rtept>
    <rtept lat="59.359333333333" lon="17.971166666667"><name>Alby kyrka</name></rtept>
    <rtept lat="59.353775" lon="17.99535"><name>Löftets kyrka</name></rtept>
    <rtept lat="59.353055555556" lon="18.024055555556"><name>Solna kyrka</name></rtept>
    <rtept lat="59.35717" lon="18.02894"><name>Katolska kyrkogårdens kapell</name></rtept>
    <rtept lat="59.345861111111" lon="18.026166666667"><name>Ryska vallarna</name></rtept>
    <rtept lat="59.3425" lon="18.032777777778"><name>Mikaelskapellet</name></rtept>
    <rtept lat="59.339444444444" lon="18.034444444444"><name>Filadelfiakyrkan, Stockholm</name></rtept>
    <rtept lat="59.338055555556" lon="18.042222222222"><name>Sabbatsbergs kyrka</name></rtept>
    <rtept lat="59.334166666667" lon="18.041388888889"><name>Sankt Eriks kapell</name></rtept>
    <rtept lat="59.33111111" lon="18.04638889"><name>Ansgariikyrkan</name></rtept>
    <rtept lat="59.328888888889" lon="18.048611111111"><name>Kungsholms kyrka</name></rtept>
    <rtept lat="59.330833333333" lon="18.035416666667"><name>Kungsholms baptistkyrka</name></rtept>
    <rtept lat="59.334583333333" lon="18.023888888889"><name>Sankt Görans kyrka</name></rtept>
    <rtept lat="59.345277777778" lon="18.0425"><name>Sankt Matteus kyrka</name></rtept>
    <rtept lat="59.345" lon="18.048611111111"><name>Norrmalmskyrkan</name></rtept>
    <rtept lat="59.3425" lon="18.0475"><name>Gustaf Vasa kyrka</name></rtept>
    <rtept lat="59.34277778" lon="18.05861111"><name>Betlehemskyrkan</name></rtept>
    <rtept lat="59.3425" lon="18.063333333333"><name>Immanuelskyrkan, Stockholm</name></rtept>
    <rtept lat="59.3425" lon="18.064166666667"><name>Korskyrkan</name></rtept>
    <rtept lat="59.34111111" lon="18.06305556"><name>Immanuelskyrkan</name></rtept>
    <rtept lat="59.33944444" lon="18.06444444"><name>Sankt Johannes kyrka</name></rtept>
    <rtept lat="59.337808333333" lon="18.068447222222"><name>Roseniuskyrkan</name></rtept>
    <rtept lat="59.336502777778" lon="18.075402777778"><name>Franska reformerta kyrkan</name></rtept>
    <rtept lat="59.336666666667" lon="18.0775"><name>Trefaldighetskyrkan</name></rtept>
    <rtept lat="59.33527778" lon="18.08055556"><name>Hedvig Eleonora kyrka</name></rtept>
    <rtept lat="59.33433333" lon="18.08633333"><name>Elimkyrkan</name></rtept>
    <rtept lat="59.333333333333" lon="18.093333333333"><name>Oscarskyrkan</name></rtept>
    <rtept lat="59.332638888889" lon="18.102361111111"><name>Engelska kyrkan</name></rtept>
    <rtept lat="59.3375" lon="18.098333333333"><name>Gustaf Adolfskyrkan</name></rtept>
    <rtept lat="59.344861111111" lon="18.088055555556"><name>Olaus Petri kyrka</name></rtept>
    <rtept lat="59.34222222" lon="18.07555556"><name>Florakyrkan</name></rtept>
    <rtept lat="59.346" lon="18.062666666667"><name>Sankt Georgios kyrka</name></rtept>
    <rtept lat="59.346666666667" lon="18.061944444444"><name>Kristi förklarings ortodoxa kyrka</name></rtept>
    <rtept lat="59.3475" lon="18.054722222222"><name>Stefanskyrkan</name></rtept>
    <rtept lat="59.348333333333" lon="18.047777777778"><name>Messiaskapellet</name></rtept>
    <rtept lat="59.3376832" lon="18.0550587"><name>Swedenborgs Minneskyrka</name></rtept>
    <rtept lat="59.337222222222" lon="18.054166666667"><name>Sankt Peterskyrkan</name></rtept>
    <rtept lat="59.336611111111" lon="18.058416666667"><name>Barnhuskyrkan</name></rtept>
    <rtept lat="59.337222222222" lon="18.059166666667"><name>Citykyrkan</name></rtept>
    <rtept lat="59.337777777778" lon="18.060277777778"><name>Adolf Fredriks kyrka</name></rtept>
    <rtept lat="59.3325" lon="18.06138889"><name>Missionskyrkan Valhalla</name></rtept>
    <rtept lat="59.33111111" lon="18.06166667"><name>Klara kyrka</name></rtept>
    <rtept lat="59.331735" lon="18.072427"><name>Sankta Eugenia katolska församling</name></rtept>
    <rtept lat="59.32991667" lon="18.07655556"><name>Blasieholmskyrkan</name></rtept>
    <rtept lat="59.32653889" lon="18.072725"><name>Slottskyrkan</name></rtept>
    <rtept lat="59.325555555556" lon="18.072222222222"><name>Finska kyrkan</name></rtept>
    <rtept lat="59.3258" lon="18.0706"><name>Storkyrkan</name></rtept>
    <rtept lat="59.32373889" lon="18.07385833"><name>S:t Johanneskyrkan</name></rtept>
    <rtept lat="59.3247" lon="18.0647"><name>Riddarholmskyrkan</name></rtept>
    <rtept lat="59.324280555556" lon="18.064002777778"><name>Gråbrödraklostret i Stockholm</name></rtept>
    <rtept lat="59.31944444" lon="18.06305556"><name>Söderhöjdskyrkan</name></rtept>
    <rtept lat="59.317777777778" lon="18.062222222222"><name>S:t Paulskyrkan</name></rtept>
    <rtept lat="59.318994444444" lon="18.067216666667"><name>Maria Magdalena kyrka</name></rtept>
    <rtept lat="59.31638889" lon="18.07319444"><name>Andreaskyrkan</name></rtept>
    <rtept lat="59.317083333333" lon="18.078055555556"><name>Katarina kyrka</name></rtept>
    <rtept lat="59.314722222222" lon="18.080555555556"><name>Salemkyrkan</name></rtept>
    <rtept lat="59.316611111111" lon="18.084166666667"><name>Kronprinsessan Märthas kyrka</name></rtept>
    <rtept lat="59.31646944" lon="18.0913"><name>Ersta kyrka</name></rtept>
    <rtept lat="59.312222222222" lon="18.088333333333"><name>Sofia kyrka</name></rtept>
    <rtept lat="59.30981944" lon="18.07074444"><name>Allhelgonakyrkan</name></rtept>
    <rtept lat="59.296666666667" lon="18.081944444444"><name>Johanneshovs skans</name></rtept>
    <rtept lat="59.295277777778" lon="18.093611111111"><name>Hammarbykyrkan</name></rtept>
    <rtept lat="59.303055555556" lon="18.104583333333"><name>Sjöstadskapellet</name></rtept>
    <rtept lat="59.29194444" lon="18.11694444"><name>Markuskyrkan</name></rtept>
    <rtept lat="59.2825" lon="18.096944444444"><name>Sandsborgskapellet</name></rtept>
    <rtept lat="59.284949" lon="18.086551"><name>Triangelkyrkan</name></rtept>
    <rtept lat="59.284527777778" lon="18.081388888889"><name>Enskede kyrka</name></rtept>
    <rtept lat="59.289444444444" lon="18.061666666667"><name>Sankt Sava serbisk-ortodoxa kyrka</name></rtept>
    <rtept lat="59.295555555556" lon="18.051666666667"><name>Årsta kyrka</name></rtept>
    <rtept lat="59.312777777778" lon="18.042777777778"><name>Tantolundens luftvärnsställning</name></rtept>
    <rtept lat="59.3175" lon="18.0375"><name>Högalidskyrkan</name></rtept>
    <rtept lat="59.315" lon="18.007777777778"><name>Gröndals kyrka</name></rtept>
    <rtept lat="59.31" lon="18.006666666667"><name>Sankt Sigfrids kyrka</name></rtept>
    <rtept lat="59.304027777778" lon="18.001666666667"><name>Uppenbarelsekyrkan</name></rtept>
    <rtept lat="59.320833333333" lon="17.990138888889"><name>Essinge kyrka</name></rtept>
    <rtept lat="59.322222222222" lon="17.994722222222"><name>S:t Mikaels och Alla Änglars kyrka</name></rtept>
    <rtept lat="59.334527777778" lon="17.978055555556"><name>Sankt Ansgars kyrka</name></rtept>
    <rtept lat="59.327777777778" lon="17.9675"><name>Västerledskyrkan</name></rtept>
    <rtept lat="59.334583333333" lon="17.953333333333"><name>Abrahamsbergskyrkan</name></rtept>
    <rtept lat="59.30011111" lon="17.96391667"><name>Betelkyrkan</name></rtept>
    <rtept lat="59.28194444" lon="18.02305556"><name>Brännkyrka kyrka</name></rtept>
    <rtept lat="59.276436" lon="18.100433"><name>Trons kapell</name></rtept>
    <rtept lat="59.276227" lon="18.100717"><name>Hoppets kapell</name></rtept>
    <rtept lat="59.269027777778" lon="18.101944444444"><name>Uppståndelsekapellet</name></rtept>
    <rtept lat="59.27723333" lon="18.1329"><name>Bagarmossens kyrka</name></rtept>
    <rtept lat="59.30715556" lon="18.14309444"><name>Nacka kyrka</name></rtept>
    <rtept lat="59.3262" lon="18.1064"><name>Seglora kyrka</name></rtept>
    <rtept lat="59.324166666667" lon="18.098333333333"><name>Djurgårdskyrkan</name></rtept>
    <rtept lat="59.3278906" lon="18.0941002"><name>Galärvarvskapellet</name></rtept>
    <rtept lat="59.355" lon="18.103333333333"><name>Hjorthagens kyrka</name></rtept>
    <rtept lat="59.36555556" lon="18.13222222"><name>Ansgarskyrkan, Lidingö</name></rtept>
    <rtept lat="59.36669444" lon="18.15727778"><name>Lidingö kyrka</name></rtept>
    <rtept lat="59.35005" lon="18.13815"><name>Bodals kyrka</name></rtept>
  </rte>
</gpx>
