<?xml version="1.0" encoding="UTF-8"?>
<gpx version="1.1" creator="Stadsvandring.io" xmlns="http://www.topografix.com/GPX/1/1">
<metadata><name>Kyrkostigen i Lund</name><link href="https://stadsvandring.io"><text>Stadsvandring.io</text></link></metadata>
  <wpt lat="55.764916666667" lon="13.172055555556"><name>Stångby kyrka</name><desc>kyrkobyggnad i Lunds kommun</desc></wpt>
  <wpt lat="55.741027777778" lon="13.171555555556"><name>Vallkärra kyrka</name><desc>kyrkobyggnad i Lunds kommun</desc></wpt>
  <wpt lat="55.73207" lon="13.16657"><name>Norra Nöbbelövs kyrka</name><desc>kyrkobyggnad i Lunds kommun</desc></wpt>
  <wpt lat="55.7232" lon="13.20449"><name>Sankt Hans kyrka</name><desc>kyrkobyggnad i Lund</desc></wpt>
  <wpt lat="55.70959472" lon="13.19413375"><name>Allhelgonakyrkan</name><desc>kyrkobyggnad i Lund, Sverige</desc></wpt>
  <wpt lat="55.709361111111" lon="13.193361111111"><name>Sankt Olofs kyrka</name><desc>medeltida kyrka i Lund</desc></wpt>
  <wpt lat="55.70958546044686" lon="13.19305490766768"><name>Kyrka/kapell</name><desc>Plats för en medeltidskyrka utanför Norre port.</desc></wpt>
  <wpt lat="55.7087995534219" lon="13.197034756233588"><name>Kloster</name><desc>Plats för Allhelgonaklostret, cluniacenserkloster som brann 1192.</desc></wpt>
  <wpt lat="55.70658699961627" lon="13.19407801788268"><name>Lasarettskapellet</name><desc>Lasarettskapellet i Lund uppfördes 1887.</desc></wpt>
  <wpt lat="55.706566666667" lon="13.192044444444"><name>Sankt Peters kyrka</name><desc>riven kyrka i Lund</desc></wpt>
  <wpt lat="55.706874777312144" lon="13.192081999634368"><name>Kyrka/kapell</name><desc>Platsen för S:t Peters medeltidskyrka vid Bredgatan.</desc></wpt>
  <wpt lat="55.705019354305925" lon="13.192166143712985"><name>Kyrka/kapell</name><desc>Plats för S:t Nikolaus kyrka, sjöfararnas skyddshelgon, byggd på 1100-talet och riven 1537.</desc></wpt>
  <wpt lat="55.704155073162745" lon="13.190714044197"><name>Kloster</name><desc>Plats för franciskanernas kloster, stiftat 1238, och Nordens första högskola.</desc></wpt>
  <wpt lat="55.703805555556" lon="13.191611111111"><name>Sankt Clemens kyrka</name><desc>medeltida kyrka i Lund</desc></wpt>
  <wpt lat="55.70405394469175" lon="13.193724582991958"><name>LUNDS DOMKYRKA</name><desc>Lunds domkyrka har en snart tusenårig och händelserik byggnadshistoria.</desc></wpt>
  <wpt lat="55.703944444444" lon="13.194222222222"><name>Kraftskyrkan</name><desc>kyrkolokal och tidigare församling i Lund</desc></wpt>
  <wpt lat="55.70354495191168" lon="13.196051394090057"><name>Kloster</name><desc>Platsen för dominikanernas kloster, stiftat 1223 och raserat 1536.</desc></wpt>
  <wpt lat="55.70325734411023" lon="13.196928962428354"><name>Kyrka/kapell</name><desc>Platsen för Sankt Mikaels medeltidskyrka, markerad med en minnessten.</desc></wpt>
  <wpt lat="55.703611111111" lon="13.197222222222"><name>Sankt Mikaels kyrka</name><desc>medeltida kyrka i Lund</desc></wpt>
  <wpt lat="55.704719444444" lon="13.197869444444"><name>Bosebo kyrka</name><desc>kyrkobyggnad i Lund</desc></wpt>
  <wpt lat="55.70479159226126" lon="13.199340893457524"><name>Kyrka/kapell</name><desc>Plats för en medeltidskyrka vid Östra Torn, känd genom skelettfynd.</desc></wpt>
  <wpt lat="55.705" lon="13.199722222222"><name>Sankt Thomas kyrka</name><desc>medeltida kyrka i Lund</desc></wpt>
  <wpt lat="55.705" lon="13.195833333333"><name>Sankt Pauls kyrka</name><desc>kyrka under medeltiden i Lund</desc></wpt>
  <wpt lat="55.70586195609356" lon="13.195820334498888"><name>Kyrka/kapell</name><desc>Ungefärlig plats för en medeltidskyrka vars kyrkogård påträffades 1909.</desc></wpt>
  <wpt lat="55.702777777778" lon="13.198888888889"><name>Sankta Maria magle kyrka</name><desc>medeltida kyrka i Lund</desc></wpt>
  <wpt lat="55.702361111111" lon="13.194527777778"><name>Sankt Botulfs kyrka</name><desc>medeltida kyrka i Lund</desc></wpt>
  <wpt lat="55.7013017122043" lon="13.194959778542737"><name>Kyrka/kapell</name><desc>Plats för S:t Mårtens romanska stenkyrka, uppförd på 1100-talet och riven 1536.</desc></wpt>
  <wpt lat="55.701136111111" lon="13.194833333333"><name>Sankt Mårtens kyrka, Lund</name><desc>medeltida kyrka i Lund</desc></wpt>
  <wpt lat="55.702083333333" lon="13.192222222222"><name>Östra Kattesundskyrkan</name><desc>tidigare medeltidskyrka i Lund</desc></wpt>
  <wpt lat="55.702181" lon="13.191118"><name>S:t Drottens</name><desc>kyrka/kapell i Skåne (Lund 28:1)</desc></wpt>
  <wpt lat="55.70218073371548" lon="13.19111776043069"><name>Kyrka/kapell</name><desc>Ruinrester av premonstratensklostret S:a Trinitas, bevarade i en museilokal.</desc></wpt>
  <wpt lat="55.701888888889" lon="13.190555555556"><name>Södra Kattesundskyrkan</name><desc>tidigare medeltidskyrka i Lund</desc></wpt>
  <wpt lat="55.700555555556" lon="13.191388888889"><name>Sankt Andreas kyrka, Lund</name><desc>medeltida kyrka i Lund</desc></wpt>
  <wpt lat="55.69951015058159" lon="13.19295220128716"><name>Kyrka/kapell</name><desc>Plats för medeltidskyrka och en runsten som skänktes till Köpenhamn 1829.</desc></wpt>
  <wpt lat="55.69818823628981" lon="13.19535728930695"><name>Kyrka/kapell</name><desc>Platsen för en medeltidskyrka enligt Kulturens stadsmodell.</desc></wpt>
  <wpt lat="55.699399932847655" lon="13.198692820129114"><name>Kyrka/kapell</name><desc>Plats för en medeltidskyrka med gravar från 1100- och 1200-talen.</desc></wpt>
  <wpt lat="55.6956" lon="13.2006"><name>Sankt Laurentii kyrka</name><desc>kyrkobyggnad i Lund</desc></wpt>
  <wpt lat="55.700139793929694" lon="13.188885024386662"><name>Kyrka/kapell</name><desc>Platsen för en medeltidskyrka i Lund.</desc></wpt>
  <wpt lat="55.70145016207831" lon="13.185202760550004"><name>Kyrka/kapell</name><desc>Plats för en medeltidskyrka.</desc></wpt>
  <wpt lat="55.704277777778" lon="13.185944444444"><name>Sankt Peters Klosters kyrka</name><desc>kyrkobyggnad i Lund</desc></wpt>
  <wpt lat="55.70456861802104" lon="13.185905995845665"><name>Kloster</name><desc>Plats för Sankt Peters kloster, grundat på 1100-talet och bestående till 1606.</desc></wpt>
  <wpt lat="55.705066603657414" lon="13.189148882213807"><name>Kyrka/kapell</name><desc>Plats för S:t Jacobs kyrka, uppförd på 1100-talet och riven 1536.</desc></wpt>
  <wpt lat="55.704722222222" lon="13.189305555556"><name>Sankt Jacobs kyrka</name><desc>medeltida kyrka i Lund</desc></wpt>
  <wpt lat="55.70836944" lon="13.18138333"><name>Västerkyrkan</name><desc>kyrka i Lund</desc></wpt>
  <wpt lat="55.702333333333" lon="13.176277777778"><name>Petersgårdens kyrka</name><desc>kyrkobyggnad i Lund</desc></wpt>
  <wpt lat="55.69375" lon="13.17916667"><name>Helgeandskyrkan</name><desc>kyrkobyggnad i Svenska kyrkan i Lund, Sverige</desc></wpt>
  <wpt lat="55.701919861202526" lon="13.209416848087098"><name>Kyrka/kapell</name><desc>Delvis övertorvad grund efter en treskeppig medeltidskyrka med absid.</desc></wpt>
  <wpt lat="55.70192" lon="13.209417"><name>S:t Jörgens hospital</name><desc>kyrka/kapell i Skåne (Lund 50:3)</desc></wpt>
  <wpt lat="55.68588889" lon="13.22516667"><name>Stora Råby kyrka</name><desc>kyrkobyggnad i Lunds kommun</desc></wpt>
  <wpt lat="55.694919444444" lon="13.241694444444"><name>Sankt Knuts kyrka</name><desc>kyrkobyggnad i Lunds kommun</desc></wpt>
  <wpt lat="55.71302" lon="13.23658"><name>Maria Magdalena kyrka</name><desc>kyrka i Lund</desc></wpt>
  <wpt lat="55.75111111" lon="13.24833333"><name>Odarslövs kyrka</name><desc>kyrkobyggnad i Lunds kommun</desc></wpt>
  <wpt lat="55.67583333" lon="13.19944444"><name>Knästorps kyrka</name><desc>kyrkobyggnad i Staffanstorps kommun</desc></wpt>
  <wpt lat="55.66638889" lon="13.17111111"><name>Uppåkra kyrka</name><desc>kyrkobyggnad i Staffanstorps kommun</desc></wpt>
  <wpt lat="55.72732778" lon="13.10489444"><name>Fjelie kyrka</name><desc>kyrkobyggnad i Lomma kommun</desc></wpt>
  <rte><name>Kyrkostigen i Lund</name>
    <rtept lat="55.764916666667" lon="13.172055555556"><name>Stångby kyrka</name></rtept>
    <rtept lat="55.741027777778" lon="13.171555555556"><name>Vallkärra kyrka</name></rtept>
    <rtept lat="55.73207" lon="13.16657"><name>Norra Nöbbelövs kyrka</name></rtept>
    <rtept lat="55.7232" lon="13.20449"><name>Sankt Hans kyrka</name></rtept>
    <rtept lat="55.70959472" lon="13.19413375"><name>Allhelgonakyrkan</name></rtept>
    <rtept lat="55.709361111111" lon="13.193361111111"><name>Sankt Olofs kyrka</name></rtept>
    <rtept lat="55.70958546044686" lon="13.19305490766768"><name>Kyrka/kapell</name></rtept>
    <rtept lat="55.7087995534219" lon="13.197034756233588"><name>Kloster</name></rtept>
    <rtept lat="55.70658699961627" lon="13.19407801788268"><name>Lasarettskapellet</name></rtept>
    <rtept lat="55.706566666667" lon="13.192044444444"><name>Sankt Peters kyrka</name></rtept>
    <rtept lat="55.706874777312144" lon="13.192081999634368"><name>Kyrka/kapell</name></rtept>
    <rtept lat="55.705019354305925" lon="13.192166143712985"><name>Kyrka/kapell</name></rtept>
    <rtept lat="55.704155073162745" lon="13.190714044197"><name>Kloster</name></rtept>
    <rtept lat="55.703805555556" lon="13.191611111111"><name>Sankt Clemens kyrka</name></rtept>
    <rtept lat="55.70405394469175" lon="13.193724582991958"><name>LUNDS DOMKYRKA</name></rtept>
    <rtept lat="55.703944444444" lon="13.194222222222"><name>Kraftskyrkan</name></rtept>
    <rtept lat="55.70354495191168" lon="13.196051394090057"><name>Kloster</name></rtept>
    <rtept lat="55.70325734411023" lon="13.196928962428354"><name>Kyrka/kapell</name></rtept>
    <rtept lat="55.703611111111" lon="13.197222222222"><name>Sankt Mikaels kyrka</name></rtept>
    <rtept lat="55.704719444444" lon="13.197869444444"><name>Bosebo kyrka</name></rtept>
    <rtept lat="55.70479159226126" lon="13.199340893457524"><name>Kyrka/kapell</name></rtept>
    <rtept lat="55.705" lon="13.199722222222"><name>Sankt Thomas kyrka</name></rtept>
    <rtept lat="55.705" lon="13.195833333333"><name>Sankt Pauls kyrka</name></rtept>
    <rtept lat="55.70586195609356" lon="13.195820334498888"><name>Kyrka/kapell</name></rtept>
    <rtept lat="55.702777777778" lon="13.198888888889"><name>Sankta Maria magle kyrka</name></rtept>
    <rtept lat="55.702361111111" lon="13.194527777778"><name>Sankt Botulfs kyrka</name></rtept>
    <rtept lat="55.7013017122043" lon="13.194959778542737"><name>Kyrka/kapell</name></rtept>
    <rtept lat="55.701136111111" lon="13.194833333333"><name>Sankt Mårtens kyrka, Lund</name></rtept>
    <rtept lat="55.702083333333" lon="13.192222222222"><name>Östra Kattesundskyrkan</name></rtept>
    <rtept lat="55.702181" lon="13.191118"><name>S:t Drottens</name></rtept>
    <rtept lat="55.70218073371548" lon="13.19111776043069"><name>Kyrka/kapell</name></rtept>
    <rtept lat="55.701888888889" lon="13.190555555556"><name>Södra Kattesundskyrkan</name></rtept>
    <rtept lat="55.700555555556" lon="13.191388888889"><name>Sankt Andreas kyrka, Lund</name></rtept>
    <rtept lat="55.69951015058159" lon="13.19295220128716"><name>Kyrka/kapell</name></rtept>
    <rtept lat="55.69818823628981" lon="13.19535728930695"><name>Kyrka/kapell</name></rtept>
    <rtept lat="55.699399932847655" lon="13.198692820129114"><name>Kyrka/kapell</name></rtept>
    <rtept lat="55.6956" lon="13.2006"><name>Sankt Laurentii kyrka</name></rtept>
    <rtept lat="55.700139793929694" lon="13.188885024386662"><name>Kyrka/kapell</name></rtept>
    <rtept lat="55.70145016207831" lon="13.185202760550004"><name>Kyrka/kapell</name></rtept>
    <rtept lat="55.704277777778" lon="13.185944444444"><name>Sankt Peters Klosters kyrka</name></rtept>
    <rtept lat="55.70456861802104" lon="13.185905995845665"><name>Kloster</name></rtept>
    <rtept lat="55.705066603657414" lon="13.189148882213807"><name>Kyrka/kapell</name></rtept>
    <rtept lat="55.704722222222" lon="13.189305555556"><name>Sankt Jacobs kyrka</name></rtept>
    <rtept lat="55.70836944" lon="13.18138333"><name>Västerkyrkan</name></rtept>
    <rtept lat="55.702333333333" lon="13.176277777778"><name>Petersgårdens kyrka</name></rtept>
    <rtept lat="55.69375" lon="13.17916667"><name>Helgeandskyrkan</name></rtept>
    <rtept lat="55.701919861202526" lon="13.209416848087098"><name>Kyrka/kapell</name></rtept>
    <rtept lat="55.70192" lon="13.209417"><name>S:t Jörgens hospital</name></rtept>
    <rtept lat="55.68588889" lon="13.22516667"><name>Stora Råby kyrka</name></rtept>
    <rtept lat="55.694919444444" lon="13.241694444444"><name>Sankt Knuts kyrka</name></rtept>
    <rtept lat="55.71302" lon="13.23658"><name>Maria Magdalena kyrka</name></rtept>
    <rtept lat="55.75111111" lon="13.24833333"><name>Odarslövs kyrka</name></rtept>
    <rtept lat="55.67583333" lon="13.19944444"><name>Knästorps kyrka</name></rtept>
    <rtept lat="55.66638889" lon="13.17111111"><name>Uppåkra kyrka</name></rtept>
    <rtept lat="55.72732778" lon="13.10489444"><name>Fjelie kyrka</name></rtept>
  </rte>
</gpx>
