<?xml version="1.0" encoding="UTF-8"?>
<gpx version="1.1" creator="Stadsvandring.io" xmlns="http://www.topografix.com/GPX/1/1">
<metadata><name>Kyrkostigen i Lidköping</name><link href="https://stadsvandring.io"><text>Stadsvandring.io</text></link></metadata>
  <wpt lat="58.55082778" lon="13.08276944"><name>Gösslunda kyrka</name><desc>kyrkobyggnad i Lidköpings kommun</desc></wpt>
  <wpt lat="58.525159" lon="13.127111"><name>Kyrkans gård lockörn</name><desc>Kyrkans gård lockörn</desc></wpt>
  <wpt lat="58.50094" lon="13.13956"><name>Sigfridskyrkan</name><desc>kyrkobyggnad i Lidköpings kommun</desc></wpt>
  <wpt lat="58.5017661660542" lon="13.152021892446244"><name>LIDKÖPINGS MISSIONSKYRKA</name><desc>Lidköpings missionskyrka från 1979, byggd efter en lång planeringsprocess.</desc></wpt>
  <wpt lat="58.50139444" lon="13.16038056"><name>Sankt Nicolai kyrka</name><desc>kyrkobyggnad i Lidköpings kommun</desc></wpt>
  <wpt lat="58.49808457033039" lon="13.158926680617894"><name>NORRA KYRKOGÅRDENS KAPELL</name><desc>Norra kyrkogårdens kapell från 1861, uppfört efter en stadsbrand.</desc></wpt>
  <wpt lat="58.49248" lon="13.151378"><name>Heliga korsets gravkapell</name><desc>kapell i Lidköpings kommun</desc></wpt>
  <wpt lat="58.49353333" lon="13.1714"><name>S:ta Maria kyrka</name><desc>kyrkobyggnad i Lidköpings kommun</desc></wpt>
  <wpt lat="58.481928" lon="13.14175"><name>Majåkers kyrka</name><desc>Majåkers kyrka</desc></wpt>
  <wpt lat="58.47407" lon="13.13309"><name>Östby kyrkplats</name><desc>plats i Hovby socken i Västergötlandv</desc></wpt>
  <wpt lat="58.4514" lon="13.1233"><name>Hovby kyrka</name><desc>kyrkobyggnad i Lidköpings kommun</desc></wpt>
  <wpt lat="58.49638889" lon="13.09222222"><name>Råda kyrka</name><desc>kyrkobyggnad i Lidköpings kommun</desc></wpt>
  <rte><name>Kyrkostigen i Lidköping</name>
    <rtept lat="58.55082778" lon="13.08276944"><name>Gösslunda kyrka</name></rtept>
    <rtept lat="58.525159" lon="13.127111"><name>Kyrkans gård lockörn</name></rtept>
    <rtept lat="58.50094" lon="13.13956"><name>Sigfridskyrkan</name></rtept>
    <rtept lat="58.5017661660542" lon="13.152021892446244"><name>LIDKÖPINGS MISSIONSKYRKA</name></rtept>
    <rtept lat="58.50139444" lon="13.16038056"><name>Sankt Nicolai kyrka</name></rtept>
    <rtept lat="58.49808457033039" lon="13.158926680617894"><name>NORRA KYRKOGÅRDENS KAPELL</name></rtept>
    <rtept lat="58.49248" lon="13.151378"><name>Heliga korsets gravkapell</name></rtept>
    <rtept lat="58.49353333" lon="13.1714"><name>S:ta Maria kyrka</name></rtept>
    <rtept lat="58.481928" lon="13.14175"><name>Majåkers kyrka</name></rtept>
    <rtept lat="58.47407" lon="13.13309"><name>Östby kyrkplats</name></rtept>
    <rtept lat="58.4514" lon="13.1233"><name>Hovby kyrka</name></rtept>
    <rtept lat="58.49638889" lon="13.09222222"><name>Råda kyrka</name></rtept>
  </rte>
</gpx>
