<?xml version="1.0" encoding="UTF-8"?>
<gpx version="1.1" creator="Stadsvandring.io" xmlns="http://www.topografix.com/GPX/1/1">
<metadata><name>Kyrkostigen i Halmstad</name><link href="https://stadsvandring.io"><text>Stadsvandring.io</text></link></metadata>
  <wpt lat="56.70015278" lon="12.86577222"><name>Kärlekens kyrka</name><desc>kyrkobyggnad i Halmstads kommun</desc></wpt>
  <wpt lat="56.696422" lon="12.873055"><name>Övraby kyrkoruin, Halmstad</name><desc>Ruinerna efter kyrkan i det medeltida Övraby, platsen för det allra äldsta Halmstad innan staden flyttades på 1300-talet.</desc></wpt>
  <wpt lat="56.68704358549882" lon="12.86999795752198"><name>Borg</name><desc>Resterna av en befäst kulle med vallar och vallgravar vid Nissan.</desc></wpt>
  <wpt lat="56.6775" lon="12.86"><name>Halmstads stadsbefästning</name><desc>försvarsverk runt staden Halmstad</desc></wpt>
  <wpt lat="56.677493014653265" lon="12.859297523537744"><name>Stadsbefästning</name><desc>En stadsport från 1605 i rött och gult tegel, en del av Halmstads befästning.</desc></wpt>
  <wpt lat="56.67691175746972" lon="12.858167523223258"><name>Kloster</name><desc>Ruinen efter franciskanerklostret Sankta Anna i Halmstad.</desc></wpt>
  <wpt lat="56.67694492705462" lon="12.856287270228977"><name>Stadsbefästning</name><desc>En kasematt ur Halmstads gamla stadsbefästning.</desc></wpt>
  <wpt lat="56.676945" lon="12.856287"><name>Halmstad 50:1</name><desc>stadsbefästning i Halland</desc></wpt>
  <wpt lat="56.675798" lon="12.854356"><name>Halmstad 32:1</name><desc>stadsbefästning i Halland</desc></wpt>
  <wpt lat="56.67579803266724" lon="12.854355540196401"><name>Stadsbefästning</name><desc>En kasematt och ett högverk ur Halmstads äldre stadsbefästning.</desc></wpt>
  <wpt lat="56.675186" lon="12.853943"><name>Halmstad 31:1</name><desc>stadsbefästning i Halland</desc></wpt>
  <wpt lat="56.675277777778" lon="12.853333333333"><name>Baptistkyrkan, Halmstad</name><desc>tidigare frikyrka i Halmstad</desc></wpt>
  <wpt lat="56.67528866534509" lon="12.855485455906235"><name>Kloster</name><desc>Lämningar efter S:t Katarina dominikankloster i Halmstad.</desc></wpt>
  <wpt lat="56.673304" lon="12.856422"><name>Sankt Nikolai kyrka, Halmstad</name><desc>Stadens medeltida kyrka, uppkallad efter sjöfararnas skyddshelgon, och den enda bevarade byggnaden från Halmstads medeltid.</desc></wpt>
  <wpt lat="56.67171024793402" lon="12.855238137581631"><name>Stadsbefästning</name><desc>En del av stadens befästning med vall, bastion och vallgrav.</desc></wpt>
  <wpt lat="56.67171" lon="12.855238"><name>Halmstad 28:1</name><desc>stadsbefästning i Halland</desc></wpt>
  <wpt lat="56.67091646446645" lon="12.857280397945924"><name>Stadsbefästning</name><desc>En bastion med kasematt ur Halmstads befästning.</desc></wpt>
  <wpt lat="56.670916" lon="12.85728"><name>Halmstad 29:1</name><desc>stadsbefästning i Halland</desc></wpt>
  <wpt lat="56.67291667" lon="12.86166667"><name>Immanuelskyrkan</name><desc>kyrkobyggnad i Halmstad, Sverige</desc></wpt>
  <wpt lat="56.674834" lon="12.86129"><name>Halmstad 70:1</name><desc>stadsbefästning i Halland</desc></wpt>
  <wpt lat="56.67483417844456" lon="12.861290194538611"><name>Stadsbefästning</name><desc>Ett utanverk med jordvall och vallgrav ur Halmstads befästning.</desc></wpt>
  <wpt lat="56.67352442699425" lon="12.853291245179705"><name>Stadsbefästning</name><desc>En torvtäckt kasematt ur stadens befästning.</desc></wpt>
  <wpt lat="56.673524" lon="12.853291"><name>Halmstad 30:1</name><desc>stadsbefästning i Halland</desc></wpt>
  <wpt lat="56.67855" lon="12.85271667"><name>Trefaldighetskyrkan</name><desc>kyrkobyggnad i Halmstad i Sverige</desc></wpt>
  <wpt lat="56.67358333" lon="12.87153333"><name>Olaus Petri kyrka</name><desc>kyrkobyggnad i Halmstads kommun</desc></wpt>
  <wpt lat="56.66738333" lon="12.88093333"><name>Martin Luthers kyrka</name><desc>kyrkobyggnad i Svenska kyrkan i Halmstad, Sverige</desc></wpt>
  <wpt lat="56.66068333" lon="12.89781944"><name>Andersbergskyrkan</name><desc>kyrkobyggnad i Halmstads kommun</desc></wpt>
  <wpt lat="56.670300675157" lon="12.913582069175"><name>Snöstorps kyrka</name><desc>kyrka/kapell i Halland</desc></wpt>
  <wpt lat="56.683183111836" lon="12.913010288065"><name>Vallås kyrka</name><desc>kyrkobyggnad i Halmstads kommun</desc></wpt>
  <wpt lat="56.69894" lon="12.92285"><name>Sperlingsholms kyrka</name><desc>kyrkobyggnad i Halmstads kommun</desc></wpt>
  <wpt lat="56.64916667" lon="12.92138889"><name>Mariakyrkan</name><desc>kyrka i Halmstads kommun, Sverige</desc></wpt>
  <wpt lat="56.67399979" lon="12.83300018"><name>Sankta Anna och Sankta Katarina kapell</name><desc>två begravningskapell med krematorium på Västra kyrkogården i Halmstad</desc></wpt>
  <wpt lat="56.67393842716533" lon="12.83267113210368"><name>SANKTA KATARINA KAPELL</name><desc>Sankta Katarina kapell i Halmstad, uppfört 1939–1941.</desc></wpt>
  <wpt lat="56.6675" lon="12.79233333"><name>Söndrums kyrka</name><desc>kyrkobyggnad i Halmstads kommun</desc></wpt>
  <wpt lat="56.697527777778" lon="12.830027777778"><name>Vapnö kyrka</name><desc>kyrkobyggnad i Halmstads kommun</desc></wpt>
  <wpt lat="56.64444444" lon="12.73281944"><name>S:t Olofs kapell</name><desc>kyrkobyggnad i Halmstads kommun</desc></wpt>
  <rte><name>Kyrkostigen i Halmstad</name>
    <rtept lat="56.70015278" lon="12.86577222"><name>Kärlekens kyrka</name></rtept>
    <rtept lat="56.696422" lon="12.873055"><name>Övraby kyrkoruin, Halmstad</name></rtept>
    <rtept lat="56.68704358549882" lon="12.86999795752198"><name>Borg</name></rtept>
    <rtept lat="56.6775" lon="12.86"><name>Halmstads stadsbefästning</name></rtept>
    <rtept lat="56.677493014653265" lon="12.859297523537744"><name>Stadsbefästning</name></rtept>
    <rtept lat="56.67691175746972" lon="12.858167523223258"><name>Kloster</name></rtept>
    <rtept lat="56.67694492705462" lon="12.856287270228977"><name>Stadsbefästning</name></rtept>
    <rtept lat="56.676945" lon="12.856287"><name>Halmstad 50:1</name></rtept>
    <rtept lat="56.675798" lon="12.854356"><name>Halmstad 32:1</name></rtept>
    <rtept lat="56.67579803266724" lon="12.854355540196401"><name>Stadsbefästning</name></rtept>
    <rtept lat="56.675186" lon="12.853943"><name>Halmstad 31:1</name></rtept>
    <rtept lat="56.675277777778" lon="12.853333333333"><name>Baptistkyrkan, Halmstad</name></rtept>
    <rtept lat="56.67528866534509" lon="12.855485455906235"><name>Kloster</name></rtept>
    <rtept lat="56.673304" lon="12.856422"><name>Sankt Nikolai kyrka, Halmstad</name></rtept>
    <rtept lat="56.67171024793402" lon="12.855238137581631"><name>Stadsbefästning</name></rtept>
    <rtept lat="56.67171" lon="12.855238"><name>Halmstad 28:1</name></rtept>
    <rtept lat="56.67091646446645" lon="12.857280397945924"><name>Stadsbefästning</name></rtept>
    <rtept lat="56.670916" lon="12.85728"><name>Halmstad 29:1</name></rtept>
    <rtept lat="56.67291667" lon="12.86166667"><name>Immanuelskyrkan</name></rtept>
    <rtept lat="56.674834" lon="12.86129"><name>Halmstad 70:1</name></rtept>
    <rtept lat="56.67483417844456" lon="12.861290194538611"><name>Stadsbefästning</name></rtept>
    <rtept lat="56.67352442699425" lon="12.853291245179705"><name>Stadsbefästning</name></rtept>
    <rtept lat="56.673524" lon="12.853291"><name>Halmstad 30:1</name></rtept>
    <rtept lat="56.67855" lon="12.85271667"><name>Trefaldighetskyrkan</name></rtept>
    <rtept lat="56.67358333" lon="12.87153333"><name>Olaus Petri kyrka</name></rtept>
    <rtept lat="56.66738333" lon="12.88093333"><name>Martin Luthers kyrka</name></rtept>
    <rtept lat="56.66068333" lon="12.89781944"><name>Andersbergskyrkan</name></rtept>
    <rtept lat="56.670300675157" lon="12.913582069175"><name>Snöstorps kyrka</name></rtept>
    <rtept lat="56.683183111836" lon="12.913010288065"><name>Vallås kyrka</name></rtept>
    <rtept lat="56.69894" lon="12.92285"><name>Sperlingsholms kyrka</name></rtept>
    <rtept lat="56.64916667" lon="12.92138889"><name>Mariakyrkan</name></rtept>
    <rtept lat="56.67399979" lon="12.83300018"><name>Sankta Anna och Sankta Katarina kapell</name></rtept>
    <rtept lat="56.67393842716533" lon="12.83267113210368"><name>SANKTA KATARINA KAPELL</name></rtept>
    <rtept lat="56.6675" lon="12.79233333"><name>Söndrums kyrka</name></rtept>
    <rtept lat="56.697527777778" lon="12.830027777778"><name>Vapnö kyrka</name></rtept>
    <rtept lat="56.64444444" lon="12.73281944"><name>S:t Olofs kapell</name></rtept>
  </rte>
</gpx>
